id,geonameid,name,addrrecnum,address,zip,latitude,longitude
1,4379593,Calvary Cemetery,10089598,5239 W Florissant Ave,63115,38.70338,-90.23817
90001,NA,I-270 at Riverview Dr,NA,I-270 at Riverview Dr,NA,38.767014999999994,-90.18242024999999
90002,NA,Riverview Dr at I-270,NA,I-270 at Riverview Dr,NA,38.767014999999994,-90.18242024999999
90003,NA,I-270 Northbound at Riverview Dr,NA,I-270 at Riverview Dr,NA,38.767014999999994,-90.18242024999999
90004,NA,Riverview Dr at I-270 Northbound,NA,I-270 at Riverview Dr,NA,38.767014999999994,-90.18242024999999
90005,NA,I-270 Southbound at Riverview Dr,NA,I-270 at Riverview Dr,NA,38.767014999999994,-90.18242024999999
90006,NA,Riverview Dr at I-270 Southbound,NA,I-270 at Riverview Dr,NA,38.767014999999994,-90.18242024999999
90007,NA,I-270 Eastbound at Riverview Dr,NA,I-270 at Riverview Dr,NA,38.767014999999994,-90.18242024999999
90008,NA,Riverview Dr at I-270 Eastbound,NA,I-270 at Riverview Dr,NA,38.767014999999994,-90.18242024999999
90009,NA,I-270 Westbound at Riverview Dr,NA,I-270 at Riverview Dr,NA,38.767014999999994,-90.18242024999999
90010,NA,Riverview Dr at I-270 Westbound,NA,I-270 at Riverview Dr,NA,38.767014999999994,-90.18242024999999
90011,NA,I-44 at Arsenal St,NA,I-44 at Arsenal St,NA,38.60849999999999,-90.30424299999999
90012,NA,Arsenal St at I-44,NA,I-44 at Arsenal St,NA,38.60849999999999,-90.30424299999999
90013,NA,I-44 Northbound at Arsenal St,NA,I-44 at Arsenal St,NA,38.60849999999999,-90.30424299999999
90014,NA,Arsenal St at I-44 Northbound,NA,I-44 at Arsenal St,NA,38.60849999999999,-90.30424299999999
90015,NA,I-44 Southbound at Arsenal St,NA,I-44 at Arsenal St,NA,38.60849999999999,-90.30424299999999
90016,NA,Arsenal St at I-44 Southbound,NA,I-44 at Arsenal St,NA,38.60849999999999,-90.30424299999999
90017,NA,I-44 Eastbound at Arsenal St,NA,I-44 at Arsenal St,NA,38.60849999999999,-90.30424299999999
90018,NA,Arsenal St at I-44 Eastbound,NA,I-44 at Arsenal St,NA,38.60849999999999,-90.30424299999999
90019,NA,I-44 Westbound at Arsenal St,NA,I-44 at Arsenal St,NA,38.60849999999999,-90.30424299999999
90020,NA,Arsenal St at I-44 Westbound,NA,I-44 at Arsenal St,NA,38.60849999999999,-90.30424299999999
90021,NA,I-44 at Biddle St,NA,I-44 at Biddle St,NA,38.63541149999999,-90.1861475
90022,NA,Biddle St at I-44,NA,I-44 at Biddle St,NA,38.63541149999999,-90.1861475
90023,NA,I-44 Northbound at Biddle St,NA,I-44 at Biddle St,NA,38.63541149999999,-90.1861475
90024,NA,Biddle St at I-44 Northbound,NA,I-44 at Biddle St,NA,38.63541149999999,-90.1861475
90025,NA,I-44 Southbound at Biddle St,NA,I-44 at Biddle St,NA,38.63541149999999,-90.1861475
90026,NA,Biddle St at I-44 Southbound,NA,I-44 at Biddle St,NA,38.63541149999999,-90.1861475
90027,NA,I-44 Eastbound at Biddle St,NA,I-44 at Biddle St,NA,38.63541149999999,-90.1861475
90028,NA,Biddle St at I-44 Eastbound,NA,I-44 at Biddle St,NA,38.63541149999999,-90.1861475
90029,NA,I-44 Westbound at Biddle St,NA,I-44 at Biddle St,NA,38.63541149999999,-90.1861475
90030,NA,Biddle St at I-44 Westbound,NA,I-44 at Biddle St,NA,38.63541149999999,-90.1861475
90031,NA,I-44 at Carr St,NA,I-44 at Carr St,NA,38.634058499999995,-90.186111
90032,NA,Carr St at I-44,NA,I-44 at Carr St,NA,38.634058499999995,-90.186111
90033,NA,I-44 Northbound at Carr St,NA,I-44 at Carr St,NA,38.634058499999995,-90.186111
90034,NA,Carr St at I-44 Northbound,NA,I-44 at Carr St,NA,38.634058499999995,-90.186111
90035,NA,I-44 Southbound at Carr St,NA,I-44 at Carr St,NA,38.634058499999995,-90.186111
90036,NA,Carr St at I-44 Southbound,NA,I-44 at Carr St,NA,38.634058499999995,-90.186111
90037,NA,I-44 Eastbound at Carr St,NA,I-44 at Carr St,NA,38.634058499999995,-90.186111
90038,NA,Carr St at I-44 Eastbound,NA,I-44 at Carr St,NA,38.634058499999995,-90.186111
90039,NA,I-44 Westbound at Carr St,NA,I-44 at Carr St,NA,38.634058499999995,-90.186111
90040,NA,Carr St at I-44 Westbound,NA,I-44 at Carr St,NA,38.634058499999995,-90.186111
90041,NA,I-44 at Cass Ave,NA,I-44 at Cass Ave,NA,38.639666999999996,-90.18707599999999
90042,NA,Cass Ave at I-44,NA,I-44 at Cass Ave,NA,38.639666999999996,-90.18707599999999
90043,NA,I-44 Northbound at Cass Ave,NA,I-44 at Cass Ave,NA,38.639666999999996,-90.18707599999999
90044,NA,Cass Ave at I-44 Northbound,NA,I-44 at Cass Ave,NA,38.639666999999996,-90.18707599999999
90045,NA,I-44 Southbound at Cass Ave,NA,I-44 at Cass Ave,NA,38.639666999999996,-90.18707599999999
90046,NA,Cass Ave at I-44 Southbound,NA,I-44 at Cass Ave,NA,38.639666999999996,-90.18707599999999
90047,NA,I-44 Eastbound at Cass Ave,NA,I-44 at Cass Ave,NA,38.639666999999996,-90.18707599999999
90048,NA,Cass Ave at I-44 Eastbound,NA,I-44 at Cass Ave,NA,38.639666999999996,-90.18707599999999
90049,NA,I-44 Westbound at Cass Ave,NA,I-44 at Cass Ave,NA,38.639666999999996,-90.18707599999999
90050,NA,Cass Ave at I-44 Westbound,NA,I-44 at Cass Ave,NA,38.639666999999996,-90.18707599999999
90051,NA,I-44 at Cedar St,NA,I-44 at Cedar St,NA,38.61868549999999,-90.19060499999998
90052,NA,Cedar St at I-44,NA,I-44 at Cedar St,NA,38.61868549999999,-90.19060499999998
90053,NA,I-44 Northbound at Cedar St,NA,I-44 at Cedar St,NA,38.61868549999999,-90.19060499999998
90054,NA,Cedar St at I-44 Northbound,NA,I-44 at Cedar St,NA,38.61868549999999,-90.19060499999998
90055,NA,I-44 Southbound at Cedar St,NA,I-44 at Cedar St,NA,38.61868549999999,-90.19060499999998
90056,NA,Cedar St at I-44 Southbound,NA,I-44 at Cedar St,NA,38.61868549999999,-90.19060499999998
90057,NA,I-44 Eastbound at Cedar St,NA,I-44 at Cedar St,NA,38.61868549999999,-90.19060499999998
90058,NA,Cedar St at I-44 Eastbound,NA,I-44 at Cedar St,NA,38.61868549999999,-90.19060499999998
90059,NA,I-44 Westbound at Cedar St,NA,I-44 at Cedar St,NA,38.61868549999999,-90.19060499999998
90060,NA,Cedar St at I-44 Westbound,NA,I-44 at Cedar St,NA,38.61868549999999,-90.19060499999998
90061,NA,I-44 at Chestnut St,NA,I-44 at Chestnut St,NA,38.625585,-90.18704299999999
90062,NA,Chestnut St at I-44,NA,I-44 at Chestnut St,NA,38.625585,-90.18704299999999
90063,NA,I-44 Northbound at Chestnut St,NA,I-44 at Chestnut St,NA,38.625585,-90.18704299999999
90064,NA,Chestnut St at I-44 Northbound,NA,I-44 at Chestnut St,NA,38.625585,-90.18704299999999
90065,NA,I-44 Southbound at Chestnut St,NA,I-44 at Chestnut St,NA,38.625585,-90.18704299999999
90066,NA,Chestnut St at I-44 Southbound,NA,I-44 at Chestnut St,NA,38.625585,-90.18704299999999
90067,NA,I-44 Eastbound at Chestnut St,NA,I-44 at Chestnut St,NA,38.625585,-90.18704299999999
90068,NA,Chestnut St at I-44 Eastbound,NA,I-44 at Chestnut St,NA,38.625585,-90.18704299999999
90069,NA,I-44 Westbound at Chestnut St,NA,I-44 at Chestnut St,NA,38.625585,-90.18704299999999
90070,NA,Chestnut St at I-44 Westbound,NA,I-44 at Chestnut St,NA,38.625585,-90.18704299999999
90071,NA,I-44 at Chouteau Ave,NA,I-44 at Chouteau Ave,NA,38.616614999999996,-90.1920155
90072,NA,Chouteau Ave at I-44,NA,I-44 at Chouteau Ave,NA,38.616614999999996,-90.1920155
90073,NA,I-44 Northbound at Chouteau Ave,NA,I-44 at Chouteau Ave,NA,38.616614999999996,-90.1920155
90074,NA,Chouteau Ave at I-44 Northbound,NA,I-44 at Chouteau Ave,NA,38.616614999999996,-90.1920155
90075,NA,I-44 Southbound at Chouteau Ave,NA,I-44 at Chouteau Ave,NA,38.616614999999996,-90.1920155
90076,NA,Chouteau Ave at I-44 Southbound,NA,I-44 at Chouteau Ave,NA,38.616614999999996,-90.1920155
90077,NA,I-44 Eastbound at Chouteau Ave,NA,I-44 at Chouteau Ave,NA,38.616614999999996,-90.1920155
90078,NA,Chouteau Ave at I-44 Eastbound,NA,I-44 at Chouteau Ave,NA,38.616614999999996,-90.1920155
90079,NA,I-44 Westbound at Chouteau Ave,NA,I-44 at Chouteau Ave,NA,38.616614999999996,-90.1920155
90080,NA,Chouteau Ave at I-44 Westbound,NA,I-44 at Chouteau Ave,NA,38.616614999999996,-90.1920155
90081,NA,I-44 at Convent St,NA,I-44 at Convent St,NA,38.615297999999996,-90.19335899999999
90082,NA,Convent St at I-44,NA,I-44 at Convent St,NA,38.615297999999996,-90.19335899999999
90083,NA,I-44 Northbound at Convent St,NA,I-44 at Convent St,NA,38.615297999999996,-90.19335899999999
90084,NA,Convent St at I-44 Northbound,NA,I-44 at Convent St,NA,38.615297999999996,-90.19335899999999
90085,NA,I-44 Southbound at Convent St,NA,I-44 at Convent St,NA,38.615297999999996,-90.19335899999999
90086,NA,Convent St at I-44 Southbound,NA,I-44 at Convent St,NA,38.615297999999996,-90.19335899999999
90087,NA,I-44 Eastbound at Convent St,NA,I-44 at Convent St,NA,38.615297999999996,-90.19335899999999
90088,NA,Convent St at I-44 Eastbound,NA,I-44 at Convent St,NA,38.615297999999996,-90.19335899999999
90089,NA,I-44 Westbound at Convent St,NA,I-44 at Convent St,NA,38.615297999999996,-90.19335899999999
90090,NA,Convent St at I-44 Westbound,NA,I-44 at Convent St,NA,38.615297999999996,-90.19335899999999
90091,NA,I-44 at Eads Brg,NA,I-44 at Eads Brg,NA,38.629650999999996,-90.18600949999998
90092,NA,Eads Brg at I-44,NA,I-44 at Eads Brg,NA,38.629650999999996,-90.18600949999998
90093,NA,I-44 Northbound at Eads Brg,NA,I-44 at Eads Brg,NA,38.629650999999996,-90.18600949999998
90094,NA,Eads Brg at I-44 Northbound,NA,I-44 at Eads Brg,NA,38.629650999999996,-90.18600949999998
90095,NA,I-44 Southbound at Eads Brg,NA,I-44 at Eads Brg,NA,38.629650999999996,-90.18600949999998
90096,NA,Eads Brg at I-44 Southbound,NA,I-44 at Eads Brg,NA,38.629650999999996,-90.18600949999998
90097,NA,I-44 Eastbound at Eads Brg,NA,I-44 at Eads Brg,NA,38.629650999999996,-90.18600949999998
90098,NA,Eads Brg at I-44 Eastbound,NA,I-44 at Eads Brg,NA,38.629650999999996,-90.18600949999998
90099,NA,I-44 Westbound at Eads Brg,NA,I-44 at Eads Brg,NA,38.629650999999996,-90.18600949999998
90100,NA,Eads Brg at I-44 Westbound,NA,I-44 at Eads Brg,NA,38.629650999999996,-90.18600949999998
90101,NA,I-44 at Edwards St,NA,I-44 at Edwards St,NA,38.619024499999995,-90.27505849999999
90102,NA,Edwards St at I-44,NA,I-44 at Edwards St,NA,38.619024499999995,-90.27505849999999
90103,NA,I-44 Northbound at Edwards St,NA,I-44 at Edwards St,NA,38.619024499999995,-90.27505849999999
90104,NA,Edwards St at I-44 Northbound,NA,I-44 at Edwards St,NA,38.619024499999995,-90.27505849999999
90105,NA,I-44 Southbound at Edwards St,NA,I-44 at Edwards St,NA,38.619024499999995,-90.27505849999999
90106,NA,Edwards St at I-44 Southbound,NA,I-44 at Edwards St,NA,38.619024499999995,-90.27505849999999
90107,NA,I-44 Eastbound at Edwards St,NA,I-44 at Edwards St,NA,38.619024499999995,-90.27505849999999
90108,NA,Edwards St at I-44 Eastbound,NA,I-44 at Edwards St,NA,38.619024499999995,-90.27505849999999
90109,NA,I-44 Westbound at Edwards St,NA,I-44 at Edwards St,NA,38.619024499999995,-90.27505849999999
90110,NA,Edwards St at I-44 Westbound,NA,I-44 at Edwards St,NA,38.619024499999995,-90.27505849999999
90111,NA,I-44 at Gratiot St,NA,I-44 at Gratiot St,NA,38.617996999999995,-90.19107649999998
90112,NA,Gratiot St at I-44,NA,I-44 at Gratiot St,NA,38.617996999999995,-90.19107649999998
90113,NA,I-44 Northbound at Gratiot St,NA,I-44 at Gratiot St,NA,38.617996999999995,-90.19107649999998
90114,NA,Gratiot St at I-44 Northbound,NA,I-44 at Gratiot St,NA,38.617996999999995,-90.19107649999998
90115,NA,I-44 Southbound at Gratiot St,NA,I-44 at Gratiot St,NA,38.617996999999995,-90.19107649999998
90116,NA,Gratiot St at I-44 Southbound,NA,I-44 at Gratiot St,NA,38.617996999999995,-90.19107649999998
90117,NA,I-44 Eastbound at Gratiot St,NA,I-44 at Gratiot St,NA,38.617996999999995,-90.19107649999998
90118,NA,Gratiot St at I-44 Eastbound,NA,I-44 at Gratiot St,NA,38.617996999999995,-90.19107649999998
90119,NA,I-44 Westbound at Gratiot St,NA,I-44 at Gratiot St,NA,38.617996999999995,-90.19107649999998
90120,NA,Gratiot St at I-44 Westbound,NA,I-44 at Gratiot St,NA,38.617996999999995,-90.19107649999998
90121,NA,I-44 at Gravois Ave,NA,I-44 at Gravois Ave,NA,38.609902999999996,-90.20886199999998
90122,NA,Gravois Ave at I-44,NA,I-44 at Gravois Ave,NA,38.609902999999996,-90.20886199999998
90123,NA,I-44 Northbound at Gravois Ave,NA,I-44 at Gravois Ave,NA,38.609902999999996,-90.20886199999998
90124,NA,Gravois Ave at I-44 Northbound,NA,I-44 at Gravois Ave,NA,38.609902999999996,-90.20886199999998
90125,NA,I-44 Southbound at Gravois Ave,NA,I-44 at Gravois Ave,NA,38.609902999999996,-90.20886199999998
90126,NA,Gravois Ave at I-44 Southbound,NA,I-44 at Gravois Ave,NA,38.609902999999996,-90.20886199999998
90127,NA,I-44 Eastbound at Gravois Ave,NA,I-44 at Gravois Ave,NA,38.609902999999996,-90.20886199999998
90128,NA,Gravois Ave at I-44 Eastbound,NA,I-44 at Gravois Ave,NA,38.609902999999996,-90.20886199999998
90129,NA,I-44 Westbound at Gravois Ave,NA,I-44 at Gravois Ave,NA,38.609902999999996,-90.20886199999998
90130,NA,Gravois Ave at I-44 Westbound,NA,I-44 at Gravois Ave,NA,38.609902999999996,-90.20886199999998
90131,NA,I-44 at Hampton Ave,NA,I-44 at Hampton Ave,NA,38.61861999999999,-90.28819099999998
90132,NA,Hampton Ave at I-44,NA,I-44 at Hampton Ave,NA,38.61861999999999,-90.28819099999998
90133,NA,I-44 Northbound at Hampton Ave,NA,I-44 at Hampton Ave,NA,38.61861999999999,-90.28819099999998
90134,NA,Hampton Ave at I-44 Northbound,NA,I-44 at Hampton Ave,NA,38.61861999999999,-90.28819099999998
90135,NA,I-44 Southbound at Hampton Ave,NA,I-44 at Hampton Ave,NA,38.61861999999999,-90.28819099999998
90136,NA,Hampton Ave at I-44 Southbound,NA,I-44 at Hampton Ave,NA,38.61861999999999,-90.28819099999998
90137,NA,I-44 Eastbound at Hampton Ave,NA,I-44 at Hampton Ave,NA,38.61861999999999,-90.28819099999998
90138,NA,Hampton Ave at I-44 Eastbound,NA,I-44 at Hampton Ave,NA,38.61861999999999,-90.28819099999998
90139,NA,I-44 Westbound at Hampton Ave,NA,I-44 at Hampton Ave,NA,38.61861999999999,-90.28819099999998
90140,NA,Hampton Ave at I-44 Westbound,NA,I-44 at Hampton Ave,NA,38.61861999999999,-90.28819099999998
90141,NA,I-44 at Hickory St,NA,I-44 at Hickory St,NA,38.614886999999996,-90.19451099999999
90142,NA,Hickory St at I-44,NA,I-44 at Hickory St,NA,38.614886999999996,-90.19451099999999
90143,NA,I-44 Northbound at Hickory St,NA,I-44 at Hickory St,NA,38.614886999999996,-90.19451099999999
90144,NA,Hickory St at I-44 Northbound,NA,I-44 at Hickory St,NA,38.614886999999996,-90.19451099999999
90145,NA,I-44 Southbound at Hickory St,NA,I-44 at Hickory St,NA,38.614886999999996,-90.19451099999999
90146,NA,Hickory St at I-44 Southbound,NA,I-44 at Hickory St,NA,38.614886999999996,-90.19451099999999
90147,NA,I-44 Eastbound at Hickory St,NA,I-44 at Hickory St,NA,38.614886999999996,-90.19451099999999
90148,NA,Hickory St at I-44 Eastbound,NA,I-44 at Hickory St,NA,38.614886999999996,-90.19451099999999
90149,NA,I-44 Westbound at Hickory St,NA,I-44 at Hickory St,NA,38.614886999999996,-90.19451099999999
90150,NA,Hickory St at I-44 Westbound,NA,I-44 at Hickory St,NA,38.614886999999996,-90.19451099999999
90151,NA,I-44 at Jamieson Ave,NA,I-44 at Jamieson Ave,NA,38.60592249999999,-90.30723599999999
90152,NA,Jamieson Ave at I-44,NA,I-44 at Jamieson Ave,NA,38.60592249999999,-90.30723599999999
90153,NA,I-44 Northbound at Jamieson Ave,NA,I-44 at Jamieson Ave,NA,38.60592249999999,-90.30723599999999
90154,NA,Jamieson Ave at I-44 Northbound,NA,I-44 at Jamieson Ave,NA,38.60592249999999,-90.30723599999999
90155,NA,I-44 Southbound at Jamieson Ave,NA,I-44 at Jamieson Ave,NA,38.60592249999999,-90.30723599999999
90156,NA,Jamieson Ave at I-44 Southbound,NA,I-44 at Jamieson Ave,NA,38.60592249999999,-90.30723599999999
90157,NA,I-44 Eastbound at Jamieson Ave,NA,I-44 at Jamieson Ave,NA,38.60592249999999,-90.30723599999999
90158,NA,Jamieson Ave at I-44 Eastbound,NA,I-44 at Jamieson Ave,NA,38.60592249999999,-90.30723599999999
90159,NA,I-44 Westbound at Jamieson Ave,NA,I-44 at Jamieson Ave,NA,38.60592249999999,-90.30723599999999
90160,NA,Jamieson Ave at I-44 Westbound,NA,I-44 at Jamieson Ave,NA,38.60592249999999,-90.30723599999999
90161,NA,I-44 at Lafayette Ave,NA,I-44 at Lafayette Ave,NA,38.611340999999996,-90.20378449999998
90162,NA,Lafayette Ave at I-44,NA,I-44 at Lafayette Ave,NA,38.611340999999996,-90.20378449999998
90163,NA,I-44 Northbound at Lafayette Ave,NA,I-44 at Lafayette Ave,NA,38.611340999999996,-90.20378449999998
90164,NA,Lafayette Ave at I-44 Northbound,NA,I-44 at Lafayette Ave,NA,38.611340999999996,-90.20378449999998
90165,NA,I-44 Southbound at Lafayette Ave,NA,I-44 at Lafayette Ave,NA,38.611340999999996,-90.20378449999998
90166,NA,Lafayette Ave at I-44 Southbound,NA,I-44 at Lafayette Ave,NA,38.611340999999996,-90.20378449999998
90167,NA,I-44 Eastbound at Lafayette Ave,NA,I-44 at Lafayette Ave,NA,38.611340999999996,-90.20378449999998
90168,NA,Lafayette Ave at I-44 Eastbound,NA,I-44 at Lafayette Ave,NA,38.611340999999996,-90.20378449999998
90169,NA,I-44 Westbound at Lafayette Ave,NA,I-44 at Lafayette Ave,NA,38.611340999999996,-90.20378449999998
90170,NA,Lafayette Ave at I-44 Westbound,NA,I-44 at Lafayette Ave,NA,38.611340999999996,-90.20378449999998
90171,NA,I-44 at Lombard St,NA,I-44 at Lombard St,NA,38.61735249999999,-90.1915125
90172,NA,Lombard St at I-44,NA,I-44 at Lombard St,NA,38.61735249999999,-90.1915125
90173,NA,I-44 Northbound at Lombard St,NA,I-44 at Lombard St,NA,38.61735249999999,-90.1915125
90174,NA,Lombard St at I-44 Northbound,NA,I-44 at Lombard St,NA,38.61735249999999,-90.1915125
90175,NA,I-44 Southbound at Lombard St,NA,I-44 at Lombard St,NA,38.61735249999999,-90.1915125
90176,NA,Lombard St at I-44 Southbound,NA,I-44 at Lombard St,NA,38.61735249999999,-90.1915125
90177,NA,I-44 Eastbound at Lombard St,NA,I-44 at Lombard St,NA,38.61735249999999,-90.1915125
90178,NA,Lombard St at I-44 Eastbound,NA,I-44 at Lombard St,NA,38.61735249999999,-90.1915125
90179,NA,I-44 Westbound at Lombard St,NA,I-44 at Lombard St,NA,38.61735249999999,-90.1915125
90180,NA,Lombard St at I-44 Westbound,NA,I-44 at Lombard St,NA,38.61735249999999,-90.1915125
90181,NA,I-44 at Macklind Ave,NA,I-44 at Macklind Ave,NA,38.619136499999996,-90.27665350000001
90182,NA,Macklind Ave at I-44,NA,I-44 at Macklind Ave,NA,38.619136499999996,-90.27665350000001
90183,NA,I-44 Northbound at Macklind Ave,NA,I-44 at Macklind Ave,NA,38.619136499999996,-90.27665350000001
90184,NA,Macklind Ave at I-44 Northbound,NA,I-44 at Macklind Ave,NA,38.619136499999996,-90.27665350000001
90185,NA,I-44 Southbound at Macklind Ave,NA,I-44 at Macklind Ave,NA,38.619136499999996,-90.27665350000001
90186,NA,Macklind Ave at I-44 Southbound,NA,I-44 at Macklind Ave,NA,38.619136499999996,-90.27665350000001
90187,NA,I-44 Eastbound at Macklind Ave,NA,I-44 at Macklind Ave,NA,38.619136499999996,-90.27665350000001
90188,NA,Macklind Ave at I-44 Eastbound,NA,I-44 at Macklind Ave,NA,38.619136499999996,-90.27665350000001
90189,NA,I-44 Westbound at Macklind Ave,NA,I-44 at Macklind Ave,NA,38.619136499999996,-90.27665350000001
90190,NA,Macklind Ave at I-44 Westbound,NA,I-44 at Macklind Ave,NA,38.619136499999996,-90.27665350000001
90191,NA,I-44 at Market St,NA,I-44 at Market St,NA,38.6248155,-90.18743049999999
90192,NA,Market St at I-44,NA,I-44 at Market St,NA,38.6248155,-90.18743049999999
90193,NA,I-44 Northbound at Market St,NA,I-44 at Market St,NA,38.6248155,-90.18743049999999
90194,NA,Market St at I-44 Northbound,NA,I-44 at Market St,NA,38.6248155,-90.18743049999999
90195,NA,I-44 Southbound at Market St,NA,I-44 at Market St,NA,38.6248155,-90.18743049999999
90196,NA,Market St at I-44 Southbound,NA,I-44 at Market St,NA,38.6248155,-90.18743049999999
90197,NA,I-44 Eastbound at Market St,NA,I-44 at Market St,NA,38.6248155,-90.18743049999999
90198,NA,Market St at I-44 Eastbound,NA,I-44 at Market St,NA,38.6248155,-90.18743049999999
90199,NA,I-44 Westbound at Market St,NA,I-44 at Market St,NA,38.6248155,-90.18743049999999
90200,NA,Market St at I-44 Westbound,NA,I-44 at Market St,NA,38.6248155,-90.18743049999999
90201,NA,I-44 at Mississippi Ave,NA,I-44 at Mississippi Ave,NA,38.612238999999995,-90.2144715
90202,NA,Mississippi Ave at I-44,NA,I-44 at Mississippi Ave,NA,38.612238999999995,-90.2144715
90203,NA,I-44 Northbound at Mississippi Ave,NA,I-44 at Mississippi Ave,NA,38.612238999999995,-90.2144715
90204,NA,Mississippi Ave at I-44 Northbound,NA,I-44 at Mississippi Ave,NA,38.612238999999995,-90.2144715
90205,NA,I-44 Southbound at Mississippi Ave,NA,I-44 at Mississippi Ave,NA,38.612238999999995,-90.2144715
90206,NA,Mississippi Ave at I-44 Southbound,NA,I-44 at Mississippi Ave,NA,38.612238999999995,-90.2144715
90207,NA,I-44 Eastbound at Mississippi Ave,NA,I-44 at Mississippi Ave,NA,38.612238999999995,-90.2144715
90208,NA,Mississippi Ave at I-44 Eastbound,NA,I-44 at Mississippi Ave,NA,38.612238999999995,-90.2144715
90209,NA,I-44 Westbound at Mississippi Ave,NA,I-44 at Mississippi Ave,NA,38.612238999999995,-90.2144715
90210,NA,Mississippi Ave at I-44 Westbound,NA,I-44 at Mississippi Ave,NA,38.612238999999995,-90.2144715
90211,NA,I-44 at N 4th St,NA,I-44 at N 4th St,NA,38.634788,-90.18613349999998
90212,NA,N 4th St at I-44,NA,I-44 at N 4th St,NA,38.634788,-90.18613349999998
90213,NA,I-44 Northbound at N 4th St,NA,I-44 at N 4th St,NA,38.634788,-90.18613349999998
90214,NA,N 4th St at I-44 Northbound,NA,I-44 at N 4th St,NA,38.634788,-90.18613349999998
90215,NA,I-44 Southbound at N 4th St,NA,I-44 at N 4th St,NA,38.634788,-90.18613349999998
90216,NA,N 4th St at I-44 Southbound,NA,I-44 at N 4th St,NA,38.634788,-90.18613349999998
90217,NA,I-44 Eastbound at N 4th St,NA,I-44 at N 4th St,NA,38.634788,-90.18613349999998
90218,NA,N 4th St at I-44 Eastbound,NA,I-44 at N 4th St,NA,38.634788,-90.18613349999998
90219,NA,I-44 Westbound at N 4th St,NA,I-44 at N 4th St,NA,38.634788,-90.18613349999998
90220,NA,N 4th St at I-44 Westbound,NA,I-44 at N 4th St,NA,38.634788,-90.18613349999998
90221,NA,I-44 at N Broadway,NA,I-44 at N Broadway,NA,38.6380935,-90.18634049999999
90222,NA,N Broadway at I-44,NA,I-44 at N Broadway,NA,38.6380935,-90.18634049999999
90223,NA,I-44 Northbound at N Broadway,NA,I-44 at N Broadway,NA,38.6380935,-90.18634049999999
90224,NA,N Broadway at I-44 Northbound,NA,I-44 at N Broadway,NA,38.6380935,-90.18634049999999
90225,NA,I-44 Southbound at N Broadway,NA,I-44 at N Broadway,NA,38.6380935,-90.18634049999999
90226,NA,N Broadway at I-44 Southbound,NA,I-44 at N Broadway,NA,38.6380935,-90.18634049999999
90227,NA,I-44 Eastbound at N Broadway,NA,I-44 at N Broadway,NA,38.6380935,-90.18634049999999
90228,NA,N Broadway at I-44 Eastbound,NA,I-44 at N Broadway,NA,38.6380935,-90.18634049999999
90229,NA,I-44 Westbound at N Broadway,NA,I-44 at N Broadway,NA,38.6380935,-90.18634049999999
90230,NA,N Broadway at I-44 Westbound,NA,I-44 at N Broadway,NA,38.6380935,-90.18634049999999
90231,NA,I-44 at N Memorial Dr,NA,I-44 at N Memorial Dr,NA,38.631012999999996,-90.18604799999999
90232,NA,N Memorial Dr at I-44,NA,I-44 at N Memorial Dr,NA,38.631012999999996,-90.18604799999999
90233,NA,I-44 Northbound at N Memorial Dr,NA,I-44 at N Memorial Dr,NA,38.631012999999996,-90.18604799999999
90234,NA,N Memorial Dr at I-44 Northbound,NA,I-44 at N Memorial Dr,NA,38.631012999999996,-90.18604799999999
90235,NA,I-44 Southbound at N Memorial Dr,NA,I-44 at N Memorial Dr,NA,38.631012999999996,-90.18604799999999
90236,NA,N Memorial Dr at I-44 Southbound,NA,I-44 at N Memorial Dr,NA,38.631012999999996,-90.18604799999999
90237,NA,I-44 Eastbound at N Memorial Dr,NA,I-44 at N Memorial Dr,NA,38.631012999999996,-90.18604799999999
90238,NA,N Memorial Dr at I-44 Eastbound,NA,I-44 at N Memorial Dr,NA,38.631012999999996,-90.18604799999999
90239,NA,I-44 Westbound at N Memorial Dr,NA,I-44 at N Memorial Dr,NA,38.631012999999996,-90.18604799999999
90240,NA,N Memorial Dr at I-44 Westbound,NA,I-44 at N Memorial Dr,NA,38.631012999999996,-90.18604799999999
90241,NA,I-44 at Nebraska Ave,NA,I-44 at Nebraska Ave,NA,38.61430299999999,-90.228106
90242,NA,Nebraska Ave at I-44,NA,I-44 at Nebraska Ave,NA,38.61430299999999,-90.228106
90243,NA,I-44 Northbound at Nebraska Ave,NA,I-44 at Nebraska Ave,NA,38.61430299999999,-90.228106
90244,NA,Nebraska Ave at I-44 Northbound,NA,I-44 at Nebraska Ave,NA,38.61430299999999,-90.228106
90245,NA,I-44 Southbound at Nebraska Ave,NA,I-44 at Nebraska Ave,NA,38.61430299999999,-90.228106
90246,NA,Nebraska Ave at I-44 Southbound,NA,I-44 at Nebraska Ave,NA,38.61430299999999,-90.228106
90247,NA,I-44 Eastbound at Nebraska Ave,NA,I-44 at Nebraska Ave,NA,38.61430299999999,-90.228106
90248,NA,Nebraska Ave at I-44 Eastbound,NA,I-44 at Nebraska Ave,NA,38.61430299999999,-90.228106
90249,NA,I-44 Westbound at Nebraska Ave,NA,I-44 at Nebraska Ave,NA,38.61430299999999,-90.228106
90250,NA,Nebraska Ave at I-44 Westbound,NA,I-44 at Nebraska Ave,NA,38.61430299999999,-90.228106
90251,NA,I-44 at Park Ave,NA,I-44 at Park Ave,NA,38.613265999999996,-90.19903649999999
90252,NA,Park Ave at I-44,NA,I-44 at Park Ave,NA,38.613265999999996,-90.19903649999999
90253,NA,I-44 Northbound at Park Ave,NA,I-44 at Park Ave,NA,38.613265999999996,-90.19903649999999
90254,NA,Park Ave at I-44 Northbound,NA,I-44 at Park Ave,NA,38.613265999999996,-90.19903649999999
90255,NA,I-44 Southbound at Park Ave,NA,I-44 at Park Ave,NA,38.613265999999996,-90.19903649999999
90256,NA,Park Ave at I-44 Southbound,NA,I-44 at Park Ave,NA,38.613265999999996,-90.19903649999999
90257,NA,I-44 Eastbound at Park Ave,NA,I-44 at Park Ave,NA,38.613265999999996,-90.19903649999999
90258,NA,Park Ave at I-44 Eastbound,NA,I-44 at Park Ave,NA,38.613265999999996,-90.19903649999999
90259,NA,I-44 Westbound at Park Ave,NA,I-44 at Park Ave,NA,38.613265999999996,-90.19903649999999
90260,NA,Park Ave at I-44 Westbound,NA,I-44 at Park Ave,NA,38.613265999999996,-90.19903649999999
90261,NA,I-44 at Pine St,NA,I-44 at Pine St,NA,38.62632049999999,-90.18669499999999
90262,NA,Pine St at I-44,NA,I-44 at Pine St,NA,38.62632049999999,-90.18669499999999
90263,NA,I-44 Northbound at Pine St,NA,I-44 at Pine St,NA,38.62632049999999,-90.18669499999999
90264,NA,Pine St at I-44 Northbound,NA,I-44 at Pine St,NA,38.62632049999999,-90.18669499999999
90265,NA,I-44 Southbound at Pine St,NA,I-44 at Pine St,NA,38.62632049999999,-90.18669499999999
90266,NA,Pine St at I-44 Southbound,NA,I-44 at Pine St,NA,38.62632049999999,-90.18669499999999
90267,NA,I-44 Eastbound at Pine St,NA,I-44 at Pine St,NA,38.62632049999999,-90.18669499999999
90268,NA,Pine St at I-44 Eastbound,NA,I-44 at Pine St,NA,38.62632049999999,-90.18669499999999
90269,NA,I-44 Westbound at Pine St,NA,I-44 at Pine St,NA,38.62632049999999,-90.18669499999999
90270,NA,Pine St at I-44 Westbound,NA,I-44 at Pine St,NA,38.62632049999999,-90.18669499999999
90271,NA,I-44 at Poplar St Brg,NA,I-44 at Poplar St Brg,NA,38.619989,-90.18967974999998
90272,NA,Poplar St Brg at I-44,NA,I-44 at Poplar St Brg,NA,38.619989,-90.18967974999998
90273,NA,I-44 Northbound at Poplar St Brg,NA,I-44 at Poplar St Brg,NA,38.619989,-90.18967974999998
90274,NA,Poplar St Brg at I-44 Northbound,NA,I-44 at Poplar St Brg,NA,38.619989,-90.18967974999998
90275,NA,I-44 Southbound at Poplar St Brg,NA,I-44 at Poplar St Brg,NA,38.619989,-90.18967974999998
90276,NA,Poplar St Brg at I-44 Southbound,NA,I-44 at Poplar St Brg,NA,38.619989,-90.18967974999998
90277,NA,I-44 Eastbound at Poplar St Brg,NA,I-44 at Poplar St Brg,NA,38.619989,-90.18967974999998
90278,NA,Poplar St Brg at I-44 Eastbound,NA,I-44 at Poplar St Brg,NA,38.619989,-90.18967974999998
90279,NA,I-44 Westbound at Poplar St Brg,NA,I-44 at Poplar St Brg,NA,38.619989,-90.18967974999998
90280,NA,Poplar St Brg at I-44 Westbound,NA,I-44 at Poplar St Brg,NA,38.619989,-90.18967974999998
90281,NA,I-44 at S 12th St,NA,I-44 at S 12th St,NA,38.609892999999985,-90.20864199999998
90282,NA,S 12th St at I-44,NA,I-44 at S 12th St,NA,38.609892999999985,-90.20864199999998
90283,NA,I-44 Northbound at S 12th St,NA,I-44 at S 12th St,NA,38.609892999999985,-90.20864199999998
90284,NA,S 12th St at I-44 Northbound,NA,I-44 at S 12th St,NA,38.609892999999985,-90.20864199999998
90285,NA,I-44 Southbound at S 12th St,NA,I-44 at S 12th St,NA,38.609892999999985,-90.20864199999998
90286,NA,S 12th St at I-44 Southbound,NA,I-44 at S 12th St,NA,38.609892999999985,-90.20864199999998
90287,NA,I-44 Eastbound at S 12th St,NA,I-44 at S 12th St,NA,38.609892999999985,-90.20864199999998
90288,NA,S 12th St at I-44 Eastbound,NA,I-44 at S 12th St,NA,38.609892999999985,-90.20864199999998
90289,NA,I-44 Westbound at S 12th St,NA,I-44 at S 12th St,NA,38.609892999999985,-90.20864199999998
90290,NA,S 12th St at I-44 Westbound,NA,I-44 at S 12th St,NA,38.609892999999985,-90.20864199999998
90291,NA,I-44 at S 39th St,NA,I-44 at S 39th St,NA,38.617150499999994,-90.24503049999998
90292,NA,S 39th St at I-44,NA,I-44 at S 39th St,NA,38.617150499999994,-90.24503049999998
90293,NA,I-44 Northbound at S 39th St,NA,I-44 at S 39th St,NA,38.617150499999994,-90.24503049999998
90294,NA,S 39th St at I-44 Northbound,NA,I-44 at S 39th St,NA,38.617150499999994,-90.24503049999998
90295,NA,I-44 Southbound at S 39th St,NA,I-44 at S 39th St,NA,38.617150499999994,-90.24503049999998
90296,NA,S 39th St at I-44 Southbound,NA,I-44 at S 39th St,NA,38.617150499999994,-90.24503049999998
90297,NA,I-44 Eastbound at S 39th St,NA,I-44 at S 39th St,NA,38.617150499999994,-90.24503049999998
90298,NA,S 39th St at I-44 Eastbound,NA,I-44 at S 39th St,NA,38.617150499999994,-90.24503049999998
90299,NA,I-44 Westbound at S 39th St,NA,I-44 at S 39th St,NA,38.617150499999994,-90.24503049999998
90300,NA,S 39th St at I-44 Westbound,NA,I-44 at S 39th St,NA,38.617150499999994,-90.24503049999998
90301,NA,I-44 at S 4th St,NA,I-44 at S 4th St,NA,38.61495899999999,-90.19430499999999
90302,NA,S 4th St at I-44,NA,I-44 at S 4th St,NA,38.61495899999999,-90.19430499999999
90303,NA,I-44 Northbound at S 4th St,NA,I-44 at S 4th St,NA,38.61495899999999,-90.19430499999999
90304,NA,S 4th St at I-44 Northbound,NA,I-44 at S 4th St,NA,38.61495899999999,-90.19430499999999
90305,NA,I-44 Southbound at S 4th St,NA,I-44 at S 4th St,NA,38.61495899999999,-90.19430499999999
90306,NA,S 4th St at I-44 Southbound,NA,I-44 at S 4th St,NA,38.61495899999999,-90.19430499999999
90307,NA,I-44 Eastbound at S 4th St,NA,I-44 at S 4th St,NA,38.61495899999999,-90.19430499999999
90308,NA,S 4th St at I-44 Eastbound,NA,I-44 at S 4th St,NA,38.61495899999999,-90.19430499999999
90309,NA,I-44 Westbound at S 4th St,NA,I-44 at S 4th St,NA,38.61495899999999,-90.19430499999999
90310,NA,S 4th St at I-44 Westbound,NA,I-44 at S 4th St,NA,38.61495899999999,-90.19430499999999
90311,NA,I-44 at S 7th St,NA,I-44 at S 7th St,NA,38.61389999999999,-90.19710599999999
90312,NA,S 7th St at I-44,NA,I-44 at S 7th St,NA,38.61389999999999,-90.19710599999999
90313,NA,I-44 Northbound at S 7th St,NA,I-44 at S 7th St,NA,38.61389999999999,-90.19710599999999
90314,NA,S 7th St at I-44 Northbound,NA,I-44 at S 7th St,NA,38.61389999999999,-90.19710599999999
90315,NA,I-44 Southbound at S 7th St,NA,I-44 at S 7th St,NA,38.61389999999999,-90.19710599999999
90316,NA,S 7th St at I-44 Southbound,NA,I-44 at S 7th St,NA,38.61389999999999,-90.19710599999999
90317,NA,I-44 Eastbound at S 7th St,NA,I-44 at S 7th St,NA,38.61389999999999,-90.19710599999999
90318,NA,S 7th St at I-44 Eastbound,NA,I-44 at S 7th St,NA,38.61389999999999,-90.19710599999999
90319,NA,I-44 Westbound at S 7th St,NA,I-44 at S 7th St,NA,38.61389999999999,-90.19710599999999
90320,NA,S 7th St at I-44 Westbound,NA,I-44 at S 7th St,NA,38.61389999999999,-90.19710599999999
90321,NA,I-44 at S Broadway,NA,I-44 at S Broadway,NA,38.614701999999994,-90.19456866666665
90322,NA,S Broadway at I-44,NA,I-44 at S Broadway,NA,38.614701999999994,-90.19456866666665
90323,NA,I-44 Northbound at S Broadway,NA,I-44 at S Broadway,NA,38.614701999999994,-90.19456866666665
90324,NA,S Broadway at I-44 Northbound,NA,I-44 at S Broadway,NA,38.614701999999994,-90.19456866666665
90325,NA,I-44 Southbound at S Broadway,NA,I-44 at S Broadway,NA,38.614701999999994,-90.19456866666665
90326,NA,S Broadway at I-44 Southbound,NA,I-44 at S Broadway,NA,38.614701999999994,-90.19456866666665
90327,NA,I-44 Eastbound at S Broadway,NA,I-44 at S Broadway,NA,38.614701999999994,-90.19456866666665
90328,NA,S Broadway at I-44 Eastbound,NA,I-44 at S Broadway,NA,38.614701999999994,-90.19456866666665
90329,NA,I-44 Westbound at S Broadway,NA,I-44 at S Broadway,NA,38.614701999999994,-90.19456866666665
90330,NA,S Broadway at I-44 Westbound,NA,I-44 at S Broadway,NA,38.614701999999994,-90.19456866666665
90331,NA,I-44 at S Compton Ave,NA,I-44 at S Compton Ave,NA,38.61519499999999,-90.23261549999998
90332,NA,S Compton Ave at I-44,NA,I-44 at S Compton Ave,NA,38.61519499999999,-90.23261549999998
90333,NA,I-44 Northbound at S Compton Ave,NA,I-44 at S Compton Ave,NA,38.61519499999999,-90.23261549999998
90334,NA,S Compton Ave at I-44 Northbound,NA,I-44 at S Compton Ave,NA,38.61519499999999,-90.23261549999998
90335,NA,I-44 Southbound at S Compton Ave,NA,I-44 at S Compton Ave,NA,38.61519499999999,-90.23261549999998
90336,NA,S Compton Ave at I-44 Southbound,NA,I-44 at S Compton Ave,NA,38.61519499999999,-90.23261549999998
90337,NA,I-44 Eastbound at S Compton Ave,NA,I-44 at S Compton Ave,NA,38.61519499999999,-90.23261549999998
90338,NA,S Compton Ave at I-44 Eastbound,NA,I-44 at S Compton Ave,NA,38.61519499999999,-90.23261549999998
90339,NA,I-44 Westbound at S Compton Ave,NA,I-44 at S Compton Ave,NA,38.61519499999999,-90.23261549999998
90340,NA,S Compton Ave at I-44 Westbound,NA,I-44 at S Compton Ave,NA,38.61519499999999,-90.23261549999998
90341,NA,I-44 at S Grand Blvd,NA,I-44 at S Grand Blvd,NA,38.61661849999999,-90.239363
90342,NA,S Grand Blvd at I-44,NA,I-44 at S Grand Blvd,NA,38.61661849999999,-90.239363
90343,NA,I-44 Northbound at S Grand Blvd,NA,I-44 at S Grand Blvd,NA,38.61661849999999,-90.239363
90344,NA,S Grand Blvd at I-44 Northbound,NA,I-44 at S Grand Blvd,NA,38.61661849999999,-90.239363
90345,NA,I-44 Southbound at S Grand Blvd,NA,I-44 at S Grand Blvd,NA,38.61661849999999,-90.239363
90346,NA,S Grand Blvd at I-44 Southbound,NA,I-44 at S Grand Blvd,NA,38.61661849999999,-90.239363
90347,NA,I-44 Eastbound at S Grand Blvd,NA,I-44 at S Grand Blvd,NA,38.61661849999999,-90.239363
90348,NA,S Grand Blvd at I-44 Eastbound,NA,I-44 at S Grand Blvd,NA,38.61661849999999,-90.239363
90349,NA,I-44 Westbound at S Grand Blvd,NA,I-44 at S Grand Blvd,NA,38.61661849999999,-90.239363
90350,NA,S Grand Blvd at I-44 Westbound,NA,I-44 at S Grand Blvd,NA,38.61661849999999,-90.239363
90351,NA,I-44 at S Jefferson Ave,NA,I-44 at S Jefferson Ave,NA,38.613668,-90.22124025
90352,NA,S Jefferson Ave at I-44,NA,I-44 at S Jefferson Ave,NA,38.613668,-90.22124025
90353,NA,I-44 Northbound at S Jefferson Ave,NA,I-44 at S Jefferson Ave,NA,38.613668,-90.22124025
90354,NA,S Jefferson Ave at I-44 Northbound,NA,I-44 at S Jefferson Ave,NA,38.613668,-90.22124025
90355,NA,I-44 Southbound at S Jefferson Ave,NA,I-44 at S Jefferson Ave,NA,38.613668,-90.22124025
90356,NA,S Jefferson Ave at I-44 Southbound,NA,I-44 at S Jefferson Ave,NA,38.613668,-90.22124025
90357,NA,I-44 Eastbound at S Jefferson Ave,NA,I-44 at S Jefferson Ave,NA,38.613668,-90.22124025
90358,NA,S Jefferson Ave at I-44 Eastbound,NA,I-44 at S Jefferson Ave,NA,38.613668,-90.22124025
90359,NA,I-44 Westbound at S Jefferson Ave,NA,I-44 at S Jefferson Ave,NA,38.613668,-90.22124025
90360,NA,S Jefferson Ave at I-44 Westbound,NA,I-44 at S Jefferson Ave,NA,38.613668,-90.22124025
90361,NA,I-44 at S Kingshighway Blvd,NA,I-44 at S Kingshighway Blvd,NA,38.61839149999999,-90.26650199999999
90362,NA,S Kingshighway Blvd at I-44,NA,I-44 at S Kingshighway Blvd,NA,38.61839149999999,-90.26650199999999
90363,NA,I-44 Northbound at S Kingshighway Blvd,NA,I-44 at S Kingshighway Blvd,NA,38.61839149999999,-90.26650199999999
90364,NA,S Kingshighway Blvd at I-44 Northbound,NA,I-44 at S Kingshighway Blvd,NA,38.61839149999999,-90.26650199999999
90365,NA,I-44 Southbound at S Kingshighway Blvd,NA,I-44 at S Kingshighway Blvd,NA,38.61839149999999,-90.26650199999999
90366,NA,S Kingshighway Blvd at I-44 Southbound,NA,I-44 at S Kingshighway Blvd,NA,38.61839149999999,-90.26650199999999
90367,NA,I-44 Eastbound at S Kingshighway Blvd,NA,I-44 at S Kingshighway Blvd,NA,38.61839149999999,-90.26650199999999
90368,NA,S Kingshighway Blvd at I-44 Eastbound,NA,I-44 at S Kingshighway Blvd,NA,38.61839149999999,-90.26650199999999
90369,NA,I-44 Westbound at S Kingshighway Blvd,NA,I-44 at S Kingshighway Blvd,NA,38.61839149999999,-90.26650199999999
90370,NA,S Kingshighway Blvd at I-44 Westbound,NA,I-44 at S Kingshighway Blvd,NA,38.61839149999999,-90.26650199999999
90371,NA,I-44 at S Tucker Blvd,NA,I-44 at S Tucker Blvd,NA,38.6102875,-90.20847799999999
90372,NA,S Tucker Blvd at I-44,NA,I-44 at S Tucker Blvd,NA,38.6102875,-90.20847799999999
90373,NA,I-44 Northbound at S Tucker Blvd,NA,I-44 at S Tucker Blvd,NA,38.6102875,-90.20847799999999
90374,NA,S Tucker Blvd at I-44 Northbound,NA,I-44 at S Tucker Blvd,NA,38.6102875,-90.20847799999999
90375,NA,I-44 Southbound at S Tucker Blvd,NA,I-44 at S Tucker Blvd,NA,38.6102875,-90.20847799999999
90376,NA,S Tucker Blvd at I-44 Southbound,NA,I-44 at S Tucker Blvd,NA,38.6102875,-90.20847799999999
90377,NA,I-44 Eastbound at S Tucker Blvd,NA,I-44 at S Tucker Blvd,NA,38.6102875,-90.20847799999999
90378,NA,S Tucker Blvd at I-44 Eastbound,NA,I-44 at S Tucker Blvd,NA,38.6102875,-90.20847799999999
90379,NA,I-44 Westbound at S Tucker Blvd,NA,I-44 at S Tucker Blvd,NA,38.6102875,-90.20847799999999
90380,NA,S Tucker Blvd at I-44 Westbound,NA,I-44 at S Tucker Blvd,NA,38.6102875,-90.20847799999999
90381,NA,I-44 at S Vandeventer Ave,NA,I-44 at S Vandeventer Ave,NA,38.618500499999996,-90.25999849999998
90382,NA,S Vandeventer Ave at I-44,NA,I-44 at S Vandeventer Ave,NA,38.618500499999996,-90.25999849999998
90383,NA,I-44 Northbound at S Vandeventer Ave,NA,I-44 at S Vandeventer Ave,NA,38.618500499999996,-90.25999849999998
90384,NA,S Vandeventer Ave at I-44 Northbound,NA,I-44 at S Vandeventer Ave,NA,38.618500499999996,-90.25999849999998
90385,NA,I-44 Southbound at S Vandeventer Ave,NA,I-44 at S Vandeventer Ave,NA,38.618500499999996,-90.25999849999998
90386,NA,S Vandeventer Ave at I-44 Southbound,NA,I-44 at S Vandeventer Ave,NA,38.618500499999996,-90.25999849999998
90387,NA,I-44 Eastbound at S Vandeventer Ave,NA,I-44 at S Vandeventer Ave,NA,38.618500499999996,-90.25999849999998
90388,NA,S Vandeventer Ave at I-44 Eastbound,NA,I-44 at S Vandeventer Ave,NA,38.618500499999996,-90.25999849999998
90389,NA,I-44 Westbound at S Vandeventer Ave,NA,I-44 at S Vandeventer Ave,NA,38.618500499999996,-90.25999849999998
90390,NA,S Vandeventer Ave at I-44 Westbound,NA,I-44 at S Vandeventer Ave,NA,38.618500499999996,-90.25999849999998
90391,NA,I-44 at Southwest Ave,NA,I-44 at Southwest Ave,NA,38.61329249999999,-90.30130349999999
90392,NA,Southwest Ave at I-44,NA,I-44 at Southwest Ave,NA,38.61329249999999,-90.30130349999999
90393,NA,I-44 Northbound at Southwest Ave,NA,I-44 at Southwest Ave,NA,38.61329249999999,-90.30130349999999
90394,NA,Southwest Ave at I-44 Northbound,NA,I-44 at Southwest Ave,NA,38.61329249999999,-90.30130349999999
90395,NA,I-44 Southbound at Southwest Ave,NA,I-44 at Southwest Ave,NA,38.61329249999999,-90.30130349999999
90396,NA,Southwest Ave at I-44 Southbound,NA,I-44 at Southwest Ave,NA,38.61329249999999,-90.30130349999999
90397,NA,I-44 Eastbound at Southwest Ave,NA,I-44 at Southwest Ave,NA,38.61329249999999,-90.30130349999999
90398,NA,Southwest Ave at I-44 Eastbound,NA,I-44 at Southwest Ave,NA,38.61329249999999,-90.30130349999999
90399,NA,I-44 Westbound at Southwest Ave,NA,I-44 at Southwest Ave,NA,38.61329249999999,-90.30130349999999
90400,NA,Southwest Ave at I-44 Westbound,NA,I-44 at Southwest Ave,NA,38.61329249999999,-90.30130349999999
90401,NA,I-44 at State Hwy 100,NA,I-44 at State Hwy 100,NA,38.616686,-90.192165
90402,NA,State Hwy 100 at I-44,NA,I-44 at State Hwy 100,NA,38.616686,-90.192165
90403,NA,I-44 Northbound at State Hwy 100,NA,I-44 at State Hwy 100,NA,38.616686,-90.192165
90404,NA,State Hwy 100 at I-44 Northbound,NA,I-44 at State Hwy 100,NA,38.616686,-90.192165
90405,NA,I-44 Southbound at State Hwy 100,NA,I-44 at State Hwy 100,NA,38.616686,-90.192165
90406,NA,State Hwy 100 at I-44 Southbound,NA,I-44 at State Hwy 100,NA,38.616686,-90.192165
90407,NA,I-44 Eastbound at State Hwy 100,NA,I-44 at State Hwy 100,NA,38.616686,-90.192165
90408,NA,State Hwy 100 at I-44 Eastbound,NA,I-44 at State Hwy 100,NA,38.616686,-90.192165
90409,NA,I-44 Westbound at State Hwy 100,NA,I-44 at State Hwy 100,NA,38.616686,-90.192165
90410,NA,State Hwy 100 at I-44 Westbound,NA,I-44 at State Hwy 100,NA,38.616686,-90.192165
90411,NA,I-44 at State Hwy 30,NA,I-44 at State Hwy 30,NA,38.609902999999996,-90.20886199999998
90412,NA,State Hwy 30 at I-44,NA,I-44 at State Hwy 30,NA,38.609902999999996,-90.20886199999998
90413,NA,I-44 Northbound at State Hwy 30,NA,I-44 at State Hwy 30,NA,38.609902999999996,-90.20886199999998
90414,NA,State Hwy 30 at I-44 Northbound,NA,I-44 at State Hwy 30,NA,38.609902999999996,-90.20886199999998
90415,NA,I-44 Southbound at State Hwy 30,NA,I-44 at State Hwy 30,NA,38.609902999999996,-90.20886199999998
90416,NA,State Hwy 30 at I-44 Southbound,NA,I-44 at State Hwy 30,NA,38.609902999999996,-90.20886199999998
90417,NA,I-44 Eastbound at State Hwy 30,NA,I-44 at State Hwy 30,NA,38.609902999999996,-90.20886199999998
90418,NA,State Hwy 30 at I-44 Eastbound,NA,I-44 at State Hwy 30,NA,38.609902999999996,-90.20886199999998
90419,NA,I-44 Westbound at State Hwy 30,NA,I-44 at State Hwy 30,NA,38.609902999999996,-90.20886199999998
90420,NA,State Hwy 30 at I-44 Westbound,NA,I-44 at State Hwy 30,NA,38.609902999999996,-90.20886199999998
90421,NA,I-44 at Sublette Ave,NA,I-44 at Sublette Ave,NA,38.619178999999995,-90.2809985
90422,NA,Sublette Ave at I-44,NA,I-44 at Sublette Ave,NA,38.619178999999995,-90.2809985
90423,NA,I-44 Northbound at Sublette Ave,NA,I-44 at Sublette Ave,NA,38.619178999999995,-90.2809985
90424,NA,Sublette Ave at I-44 Northbound,NA,I-44 at Sublette Ave,NA,38.619178999999995,-90.2809985
90425,NA,I-44 Southbound at Sublette Ave,NA,I-44 at Sublette Ave,NA,38.619178999999995,-90.2809985
90426,NA,Sublette Ave at I-44 Southbound,NA,I-44 at Sublette Ave,NA,38.619178999999995,-90.2809985
90427,NA,I-44 Eastbound at Sublette Ave,NA,I-44 at Sublette Ave,NA,38.619178999999995,-90.2809985
90428,NA,Sublette Ave at I-44 Eastbound,NA,I-44 at Sublette Ave,NA,38.619178999999995,-90.2809985
90429,NA,I-44 Westbound at Sublette Ave,NA,I-44 at Sublette Ave,NA,38.619178999999995,-90.2809985
90430,NA,Sublette Ave at I-44 Westbound,NA,I-44 at Sublette Ave,NA,38.619178999999995,-90.2809985
90431,NA,I-44 at Thurman Ave,NA,I-44 at Thurman Ave,NA,38.61764449999999,-90.250362
90432,NA,Thurman Ave at I-44,NA,I-44 at Thurman Ave,NA,38.61764449999999,-90.250362
90433,NA,I-44 Northbound at Thurman Ave,NA,I-44 at Thurman Ave,NA,38.61764449999999,-90.250362
90434,NA,Thurman Ave at I-44 Northbound,NA,I-44 at Thurman Ave,NA,38.61764449999999,-90.250362
90435,NA,I-44 Southbound at Thurman Ave,NA,I-44 at Thurman Ave,NA,38.61764449999999,-90.250362
90436,NA,Thurman Ave at I-44 Southbound,NA,I-44 at Thurman Ave,NA,38.61764449999999,-90.250362
90437,NA,I-44 Eastbound at Thurman Ave,NA,I-44 at Thurman Ave,NA,38.61764449999999,-90.250362
90438,NA,Thurman Ave at I-44 Eastbound,NA,I-44 at Thurman Ave,NA,38.61764449999999,-90.250362
90439,NA,I-44 Westbound at Thurman Ave,NA,I-44 at Thurman Ave,NA,38.61764449999999,-90.250362
90440,NA,Thurman Ave at I-44 Westbound,NA,I-44 at Thurman Ave,NA,38.61764449999999,-90.250362
90441,NA,I-44 at Tower Grove Ave,NA,I-44 at Tower Grove Ave,NA,38.61818749999999,-90.25605599999999
90442,NA,Tower Grove Ave at I-44,NA,I-44 at Tower Grove Ave,NA,38.61818749999999,-90.25605599999999
90443,NA,I-44 Northbound at Tower Grove Ave,NA,I-44 at Tower Grove Ave,NA,38.61818749999999,-90.25605599999999
90444,NA,Tower Grove Ave at I-44 Northbound,NA,I-44 at Tower Grove Ave,NA,38.61818749999999,-90.25605599999999
90445,NA,I-44 Southbound at Tower Grove Ave,NA,I-44 at Tower Grove Ave,NA,38.61818749999999,-90.25605599999999
90446,NA,Tower Grove Ave at I-44 Southbound,NA,I-44 at Tower Grove Ave,NA,38.61818749999999,-90.25605599999999
90447,NA,I-44 Eastbound at Tower Grove Ave,NA,I-44 at Tower Grove Ave,NA,38.61818749999999,-90.25605599999999
90448,NA,Tower Grove Ave at I-44 Eastbound,NA,I-44 at Tower Grove Ave,NA,38.61818749999999,-90.25605599999999
90449,NA,I-44 Westbound at Tower Grove Ave,NA,I-44 at Tower Grove Ave,NA,38.61818749999999,-90.25605599999999
90450,NA,Tower Grove Ave at I-44 Westbound,NA,I-44 at Tower Grove Ave,NA,38.61818749999999,-90.25605599999999
90451,NA,I-44 at US Hwy 40,NA,I-44 at US Hwy 40,NA,38.619989,-90.18967974999998
90452,NA,US Hwy 40 at I-44,NA,I-44 at US Hwy 40,NA,38.619989,-90.18967974999998
90453,NA,I-44 Northbound at US Hwy 40,NA,I-44 at US Hwy 40,NA,38.619989,-90.18967974999998
90454,NA,US Hwy 40 at I-44 Northbound,NA,I-44 at US Hwy 40,NA,38.619989,-90.18967974999998
90455,NA,I-44 Southbound at US Hwy 40,NA,I-44 at US Hwy 40,NA,38.619989,-90.18967974999998
90456,NA,US Hwy 40 at I-44 Southbound,NA,I-44 at US Hwy 40,NA,38.619989,-90.18967974999998
90457,NA,I-44 Eastbound at US Hwy 40,NA,I-44 at US Hwy 40,NA,38.619989,-90.18967974999998
90458,NA,US Hwy 40 at I-44 Eastbound,NA,I-44 at US Hwy 40,NA,38.619989,-90.18967974999998
90459,NA,I-44 Westbound at US Hwy 40,NA,I-44 at US Hwy 40,NA,38.619989,-90.18967974999998
90460,NA,US Hwy 40 at I-44 Westbound,NA,I-44 at US Hwy 40,NA,38.619989,-90.18967974999998
90461,NA,I-44 at Wabash Ave,NA,I-44 at Wabash Ave,NA,38.5998775,-90.31539749999999
90462,NA,Wabash Ave at I-44,NA,I-44 at Wabash Ave,NA,38.5998775,-90.31539749999999
90463,NA,I-44 Northbound at Wabash Ave,NA,I-44 at Wabash Ave,NA,38.5998775,-90.31539749999999
90464,NA,Wabash Ave at I-44 Northbound,NA,I-44 at Wabash Ave,NA,38.5998775,-90.31539749999999
90465,NA,I-44 Southbound at Wabash Ave,NA,I-44 at Wabash Ave,NA,38.5998775,-90.31539749999999
90466,NA,Wabash Ave at I-44 Southbound,NA,I-44 at Wabash Ave,NA,38.5998775,-90.31539749999999
90467,NA,I-44 Eastbound at Wabash Ave,NA,I-44 at Wabash Ave,NA,38.5998775,-90.31539749999999
90468,NA,Wabash Ave at I-44 Eastbound,NA,I-44 at Wabash Ave,NA,38.5998775,-90.31539749999999
90469,NA,I-44 Westbound at Wabash Ave,NA,I-44 at Wabash Ave,NA,38.5998775,-90.31539749999999
90470,NA,Wabash Ave at I-44 Westbound,NA,I-44 at Wabash Ave,NA,38.5998775,-90.31539749999999
90471,NA,I-44 at Walnut St,NA,I-44 at Walnut St,NA,38.62394699999999,-90.18780449999998
90472,NA,Walnut St at I-44,NA,I-44 at Walnut St,NA,38.62394699999999,-90.18780449999998
90473,NA,I-44 Northbound at Walnut St,NA,I-44 at Walnut St,NA,38.62394699999999,-90.18780449999998
90474,NA,Walnut St at I-44 Northbound,NA,I-44 at Walnut St,NA,38.62394699999999,-90.18780449999998
90475,NA,I-44 Southbound at Walnut St,NA,I-44 at Walnut St,NA,38.62394699999999,-90.18780449999998
90476,NA,Walnut St at I-44 Southbound,NA,I-44 at Walnut St,NA,38.62394699999999,-90.18780449999998
90477,NA,I-44 Eastbound at Walnut St,NA,I-44 at Walnut St,NA,38.62394699999999,-90.18780449999998
90478,NA,Walnut St at I-44 Eastbound,NA,I-44 at Walnut St,NA,38.62394699999999,-90.18780449999998
90479,NA,I-44 Westbound at Walnut St,NA,I-44 at Walnut St,NA,38.62394699999999,-90.18780449999998
90480,NA,Walnut St at I-44 Westbound,NA,I-44 at Walnut St,NA,38.62394699999999,-90.18780449999998
90481,NA,I-44 at Washington Ave,NA,I-44 at Washington Ave,NA,38.629438,-90.18600049999998
90482,NA,Washington Ave at I-44,NA,I-44 at Washington Ave,NA,38.629438,-90.18600049999998
90483,NA,I-44 Northbound at Washington Ave,NA,I-44 at Washington Ave,NA,38.629438,-90.18600049999998
90484,NA,Washington Ave at I-44 Northbound,NA,I-44 at Washington Ave,NA,38.629438,-90.18600049999998
90485,NA,I-44 Southbound at Washington Ave,NA,I-44 at Washington Ave,NA,38.629438,-90.18600049999998
90486,NA,Washington Ave at I-44 Southbound,NA,I-44 at Washington Ave,NA,38.629438,-90.18600049999998
90487,NA,I-44 Eastbound at Washington Ave,NA,I-44 at Washington Ave,NA,38.629438,-90.18600049999998
90488,NA,Washington Ave at I-44 Eastbound,NA,I-44 at Washington Ave,NA,38.629438,-90.18600049999998
90489,NA,I-44 Westbound at Washington Ave,NA,I-44 at Washington Ave,NA,38.629438,-90.18600049999998
90490,NA,Washington Ave at I-44 Westbound,NA,I-44 at Washington Ave,NA,38.629438,-90.18600049999998
90491,NA,I-55 at Arsenal St,NA,I-55 at Arsenal St,NA,38.59661949999999,-90.21612049999999
90492,NA,Arsenal St at I-55,NA,I-55 at Arsenal St,NA,38.59661949999999,-90.21612049999999
90493,NA,I-55 Northbound at Arsenal St,NA,I-55 at Arsenal St,NA,38.59661949999999,-90.21612049999999
90494,NA,Arsenal St at I-55 Northbound,NA,I-55 at Arsenal St,NA,38.59661949999999,-90.21612049999999
90495,NA,I-55 Southbound at Arsenal St,NA,I-55 at Arsenal St,NA,38.59661949999999,-90.21612049999999
90496,NA,Arsenal St at I-55 Southbound,NA,I-55 at Arsenal St,NA,38.59661949999999,-90.21612049999999
90497,NA,I-55 Eastbound at Arsenal St,NA,I-55 at Arsenal St,NA,38.59661949999999,-90.21612049999999
90498,NA,Arsenal St at I-55 Eastbound,NA,I-55 at Arsenal St,NA,38.59661949999999,-90.21612049999999
90499,NA,I-55 Westbound at Arsenal St,NA,I-55 at Arsenal St,NA,38.59661949999999,-90.21612049999999
90500,NA,Arsenal St at I-55 Westbound,NA,I-55 at Arsenal St,NA,38.59661949999999,-90.21612049999999
90501,NA,I-55 at Bates St,NA,I-55 at Bates St,NA,38.56335499999999,-90.244624
90502,NA,Bates St at I-55,NA,I-55 at Bates St,NA,38.56335499999999,-90.244624
90503,NA,I-55 Northbound at Bates St,NA,I-55 at Bates St,NA,38.56335499999999,-90.244624
90504,NA,Bates St at I-55 Northbound,NA,I-55 at Bates St,NA,38.56335499999999,-90.244624
90505,NA,I-55 Southbound at Bates St,NA,I-55 at Bates St,NA,38.56335499999999,-90.244624
90506,NA,Bates St at I-55 Southbound,NA,I-55 at Bates St,NA,38.56335499999999,-90.244624
90507,NA,I-55 Eastbound at Bates St,NA,I-55 at Bates St,NA,38.56335499999999,-90.244624
90508,NA,Bates St at I-55 Eastbound,NA,I-55 at Bates St,NA,38.56335499999999,-90.244624
90509,NA,I-55 Westbound at Bates St,NA,I-55 at Bates St,NA,38.56335499999999,-90.244624
90510,NA,Bates St at I-55 Westbound,NA,I-55 at Bates St,NA,38.56335499999999,-90.244624
90511,NA,I-55 at Bellerive Blvd,NA,I-55 at Bellerive Blvd,NA,38.56273849999999,-90.24640549999998
90512,NA,Bellerive Blvd at I-55,NA,I-55 at Bellerive Blvd,NA,38.56273849999999,-90.24640549999998
90513,NA,I-55 Northbound at Bellerive Blvd,NA,I-55 at Bellerive Blvd,NA,38.56273849999999,-90.24640549999998
90514,NA,Bellerive Blvd at I-55 Northbound,NA,I-55 at Bellerive Blvd,NA,38.56273849999999,-90.24640549999998
90515,NA,I-55 Southbound at Bellerive Blvd,NA,I-55 at Bellerive Blvd,NA,38.56273849999999,-90.24640549999998
90516,NA,Bellerive Blvd at I-55 Southbound,NA,I-55 at Bellerive Blvd,NA,38.56273849999999,-90.24640549999998
90517,NA,I-55 Eastbound at Bellerive Blvd,NA,I-55 at Bellerive Blvd,NA,38.56273849999999,-90.24640549999998
90518,NA,Bellerive Blvd at I-55 Eastbound,NA,I-55 at Bellerive Blvd,NA,38.56273849999999,-90.24640549999998
90519,NA,I-55 Westbound at Bellerive Blvd,NA,I-55 at Bellerive Blvd,NA,38.56273849999999,-90.24640549999998
90520,NA,Bellerive Blvd at I-55 Westbound,NA,I-55 at Bellerive Blvd,NA,38.56273849999999,-90.24640549999998
90521,NA,I-55 at Carondelet Blvd,NA,I-55 at Carondelet Blvd,NA,38.55302049999999,-90.27151599999999
90522,NA,Carondelet Blvd at I-55,NA,I-55 at Carondelet Blvd,NA,38.55302049999999,-90.27151599999999
90523,NA,I-55 Northbound at Carondelet Blvd,NA,I-55 at Carondelet Blvd,NA,38.55302049999999,-90.27151599999999
90524,NA,Carondelet Blvd at I-55 Northbound,NA,I-55 at Carondelet Blvd,NA,38.55302049999999,-90.27151599999999
90525,NA,I-55 Southbound at Carondelet Blvd,NA,I-55 at Carondelet Blvd,NA,38.55302049999999,-90.27151599999999
90526,NA,Carondelet Blvd at I-55 Southbound,NA,I-55 at Carondelet Blvd,NA,38.55302049999999,-90.27151599999999
90527,NA,I-55 Eastbound at Carondelet Blvd,NA,I-55 at Carondelet Blvd,NA,38.55302049999999,-90.27151599999999
90528,NA,Carondelet Blvd at I-55 Eastbound,NA,I-55 at Carondelet Blvd,NA,38.55302049999999,-90.27151599999999
90529,NA,I-55 Westbound at Carondelet Blvd,NA,I-55 at Carondelet Blvd,NA,38.55302049999999,-90.27151599999999
90530,NA,Carondelet Blvd at I-55 Westbound,NA,I-55 at Carondelet Blvd,NA,38.55302049999999,-90.27151599999999
90531,NA,I-55 at Cedar St,NA,I-55 at Cedar St,NA,38.61868549999999,-90.19060499999998
90532,NA,Cedar St at I-55,NA,I-55 at Cedar St,NA,38.61868549999999,-90.19060499999998
90533,NA,I-55 Northbound at Cedar St,NA,I-55 at Cedar St,NA,38.61868549999999,-90.19060499999998
90534,NA,Cedar St at I-55 Northbound,NA,I-55 at Cedar St,NA,38.61868549999999,-90.19060499999998
90535,NA,I-55 Southbound at Cedar St,NA,I-55 at Cedar St,NA,38.61868549999999,-90.19060499999998
90536,NA,Cedar St at I-55 Southbound,NA,I-55 at Cedar St,NA,38.61868549999999,-90.19060499999998
90537,NA,I-55 Eastbound at Cedar St,NA,I-55 at Cedar St,NA,38.61868549999999,-90.19060499999998
90538,NA,Cedar St at I-55 Eastbound,NA,I-55 at Cedar St,NA,38.61868549999999,-90.19060499999998
90539,NA,I-55 Westbound at Cedar St,NA,I-55 at Cedar St,NA,38.61868549999999,-90.19060499999998
90540,NA,Cedar St at I-55 Westbound,NA,I-55 at Cedar St,NA,38.61868549999999,-90.19060499999998
90541,NA,I-55 at Chouteau Ave,NA,I-55 at Chouteau Ave,NA,38.616614999999996,-90.1920155
90542,NA,Chouteau Ave at I-55,NA,I-55 at Chouteau Ave,NA,38.616614999999996,-90.1920155
90543,NA,I-55 Northbound at Chouteau Ave,NA,I-55 at Chouteau Ave,NA,38.616614999999996,-90.1920155
90544,NA,Chouteau Ave at I-55 Northbound,NA,I-55 at Chouteau Ave,NA,38.616614999999996,-90.1920155
90545,NA,I-55 Southbound at Chouteau Ave,NA,I-55 at Chouteau Ave,NA,38.616614999999996,-90.1920155
90546,NA,Chouteau Ave at I-55 Southbound,NA,I-55 at Chouteau Ave,NA,38.616614999999996,-90.1920155
90547,NA,I-55 Eastbound at Chouteau Ave,NA,I-55 at Chouteau Ave,NA,38.616614999999996,-90.1920155
90548,NA,Chouteau Ave at I-55 Eastbound,NA,I-55 at Chouteau Ave,NA,38.616614999999996,-90.1920155
90549,NA,I-55 Westbound at Chouteau Ave,NA,I-55 at Chouteau Ave,NA,38.616614999999996,-90.1920155
90550,NA,Chouteau Ave at I-55 Westbound,NA,I-55 at Chouteau Ave,NA,38.616614999999996,-90.1920155
90551,NA,I-55 at Convent St,NA,I-55 at Convent St,NA,38.615297999999996,-90.19335899999999
90552,NA,Convent St at I-55,NA,I-55 at Convent St,NA,38.615297999999996,-90.19335899999999
90553,NA,I-55 Northbound at Convent St,NA,I-55 at Convent St,NA,38.615297999999996,-90.19335899999999
90554,NA,Convent St at I-55 Northbound,NA,I-55 at Convent St,NA,38.615297999999996,-90.19335899999999
90555,NA,I-55 Southbound at Convent St,NA,I-55 at Convent St,NA,38.615297999999996,-90.19335899999999
90556,NA,Convent St at I-55 Southbound,NA,I-55 at Convent St,NA,38.615297999999996,-90.19335899999999
90557,NA,I-55 Eastbound at Convent St,NA,I-55 at Convent St,NA,38.615297999999996,-90.19335899999999
90558,NA,Convent St at I-55 Eastbound,NA,I-55 at Convent St,NA,38.615297999999996,-90.19335899999999
90559,NA,I-55 Westbound at Convent St,NA,I-55 at Convent St,NA,38.615297999999996,-90.19335899999999
90560,NA,Convent St at I-55 Westbound,NA,I-55 at Convent St,NA,38.615297999999996,-90.19335899999999
90561,NA,I-55 at Delor St,NA,I-55 at Delor St,NA,38.5692725,-90.2390485
90562,NA,Delor St at I-55,NA,I-55 at Delor St,NA,38.5692725,-90.2390485
90563,NA,I-55 Northbound at Delor St,NA,I-55 at Delor St,NA,38.5692725,-90.2390485
90564,NA,Delor St at I-55 Northbound,NA,I-55 at Delor St,NA,38.5692725,-90.2390485
90565,NA,I-55 Southbound at Delor St,NA,I-55 at Delor St,NA,38.5692725,-90.2390485
90566,NA,Delor St at I-55 Southbound,NA,I-55 at Delor St,NA,38.5692725,-90.2390485
90567,NA,I-55 Eastbound at Delor St,NA,I-55 at Delor St,NA,38.5692725,-90.2390485
90568,NA,Delor St at I-55 Eastbound,NA,I-55 at Delor St,NA,38.5692725,-90.2390485
90569,NA,I-55 Westbound at Delor St,NA,I-55 at Delor St,NA,38.5692725,-90.2390485
90570,NA,Delor St at I-55 Westbound,NA,I-55 at Delor St,NA,38.5692725,-90.2390485
90571,NA,I-55 at Gasconade St,NA,I-55 at Gasconade St,NA,38.58041549999999,-90.22564949999997
90572,NA,Gasconade St at I-55,NA,I-55 at Gasconade St,NA,38.58041549999999,-90.22564949999997
90573,NA,I-55 Northbound at Gasconade St,NA,I-55 at Gasconade St,NA,38.58041549999999,-90.22564949999997
90574,NA,Gasconade St at I-55 Northbound,NA,I-55 at Gasconade St,NA,38.58041549999999,-90.22564949999997
90575,NA,I-55 Southbound at Gasconade St,NA,I-55 at Gasconade St,NA,38.58041549999999,-90.22564949999997
90576,NA,Gasconade St at I-55 Southbound,NA,I-55 at Gasconade St,NA,38.58041549999999,-90.22564949999997
90577,NA,I-55 Eastbound at Gasconade St,NA,I-55 at Gasconade St,NA,38.58041549999999,-90.22564949999997
90578,NA,Gasconade St at I-55 Eastbound,NA,I-55 at Gasconade St,NA,38.58041549999999,-90.22564949999997
90579,NA,I-55 Westbound at Gasconade St,NA,I-55 at Gasconade St,NA,38.58041549999999,-90.22564949999997
90580,NA,Gasconade St at I-55 Westbound,NA,I-55 at Gasconade St,NA,38.58041549999999,-90.22564949999997
90581,NA,I-55 at Germania St,NA,I-55 at Germania St,NA,38.553146,-90.27015499999999
90582,NA,Germania St at I-55,NA,I-55 at Germania St,NA,38.553146,-90.27015499999999
90583,NA,I-55 Northbound at Germania St,NA,I-55 at Germania St,NA,38.553146,-90.27015499999999
90584,NA,Germania St at I-55 Northbound,NA,I-55 at Germania St,NA,38.553146,-90.27015499999999
90585,NA,I-55 Southbound at Germania St,NA,I-55 at Germania St,NA,38.553146,-90.27015499999999
90586,NA,Germania St at I-55 Southbound,NA,I-55 at Germania St,NA,38.553146,-90.27015499999999
90587,NA,I-55 Eastbound at Germania St,NA,I-55 at Germania St,NA,38.553146,-90.27015499999999
90588,NA,Germania St at I-55 Eastbound,NA,I-55 at Germania St,NA,38.553146,-90.27015499999999
90589,NA,I-55 Westbound at Germania St,NA,I-55 at Germania St,NA,38.553146,-90.27015499999999
90590,NA,Germania St at I-55 Westbound,NA,I-55 at Germania St,NA,38.553146,-90.27015499999999
90591,NA,I-55 at Gratiot St,NA,I-55 at Gratiot St,NA,38.617996999999995,-90.19107649999998
90592,NA,Gratiot St at I-55,NA,I-55 at Gratiot St,NA,38.617996999999995,-90.19107649999998
90593,NA,I-55 Northbound at Gratiot St,NA,I-55 at Gratiot St,NA,38.617996999999995,-90.19107649999998
90594,NA,Gratiot St at I-55 Northbound,NA,I-55 at Gratiot St,NA,38.617996999999995,-90.19107649999998
90595,NA,I-55 Southbound at Gratiot St,NA,I-55 at Gratiot St,NA,38.617996999999995,-90.19107649999998
90596,NA,Gratiot St at I-55 Southbound,NA,I-55 at Gratiot St,NA,38.617996999999995,-90.19107649999998
90597,NA,I-55 Eastbound at Gratiot St,NA,I-55 at Gratiot St,NA,38.617996999999995,-90.19107649999998
90598,NA,Gratiot St at I-55 Eastbound,NA,I-55 at Gratiot St,NA,38.617996999999995,-90.19107649999998
90599,NA,I-55 Westbound at Gratiot St,NA,I-55 at Gratiot St,NA,38.617996999999995,-90.19107649999998
90600,NA,Gratiot St at I-55 Westbound,NA,I-55 at Gratiot St,NA,38.617996999999995,-90.19107649999998
90601,NA,I-55 at Gravois Ave,NA,I-55 at Gravois Ave,NA,38.608395,-90.21246899999998
90602,NA,Gravois Ave at I-55,NA,I-55 at Gravois Ave,NA,38.608395,-90.21246899999998
90603,NA,I-55 Northbound at Gravois Ave,NA,I-55 at Gravois Ave,NA,38.608395,-90.21246899999998
90604,NA,Gravois Ave at I-55 Northbound,NA,I-55 at Gravois Ave,NA,38.608395,-90.21246899999998
90605,NA,I-55 Southbound at Gravois Ave,NA,I-55 at Gravois Ave,NA,38.608395,-90.21246899999998
90606,NA,Gravois Ave at I-55 Southbound,NA,I-55 at Gravois Ave,NA,38.608395,-90.21246899999998
90607,NA,I-55 Eastbound at Gravois Ave,NA,I-55 at Gravois Ave,NA,38.608395,-90.21246899999998
90608,NA,Gravois Ave at I-55 Eastbound,NA,I-55 at Gravois Ave,NA,38.608395,-90.21246899999998
90609,NA,I-55 Westbound at Gravois Ave,NA,I-55 at Gravois Ave,NA,38.608395,-90.21246899999998
90610,NA,Gravois Ave at I-55 Westbound,NA,I-55 at Gravois Ave,NA,38.608395,-90.21246899999998
90611,NA,I-55 at Hickory St,NA,I-55 at Hickory St,NA,38.614886999999996,-90.19451099999999
90612,NA,Hickory St at I-55,NA,I-55 at Hickory St,NA,38.614886999999996,-90.19451099999999
90613,NA,I-55 Northbound at Hickory St,NA,I-55 at Hickory St,NA,38.614886999999996,-90.19451099999999
90614,NA,Hickory St at I-55 Northbound,NA,I-55 at Hickory St,NA,38.614886999999996,-90.19451099999999
90615,NA,I-55 Southbound at Hickory St,NA,I-55 at Hickory St,NA,38.614886999999996,-90.19451099999999
90616,NA,Hickory St at I-55 Southbound,NA,I-55 at Hickory St,NA,38.614886999999996,-90.19451099999999
90617,NA,I-55 Eastbound at Hickory St,NA,I-55 at Hickory St,NA,38.614886999999996,-90.19451099999999
90618,NA,Hickory St at I-55 Eastbound,NA,I-55 at Hickory St,NA,38.614886999999996,-90.19451099999999
90619,NA,I-55 Westbound at Hickory St,NA,I-55 at Hickory St,NA,38.614886999999996,-90.19451099999999
90620,NA,Hickory St at I-55 Westbound,NA,I-55 at Hickory St,NA,38.614886999999996,-90.19451099999999
90621,NA,I-55 at Holly Hills Ave,NA,I-55 at Holly Hills Ave,NA,38.56021899999999,-90.25527799999999
90622,NA,Holly Hills Ave at I-55,NA,I-55 at Holly Hills Ave,NA,38.56021899999999,-90.25527799999999
90623,NA,I-55 Northbound at Holly Hills Ave,NA,I-55 at Holly Hills Ave,NA,38.56021899999999,-90.25527799999999
90624,NA,Holly Hills Ave at I-55 Northbound,NA,I-55 at Holly Hills Ave,NA,38.56021899999999,-90.25527799999999
90625,NA,I-55 Southbound at Holly Hills Ave,NA,I-55 at Holly Hills Ave,NA,38.56021899999999,-90.25527799999999
90626,NA,Holly Hills Ave at I-55 Southbound,NA,I-55 at Holly Hills Ave,NA,38.56021899999999,-90.25527799999999
90627,NA,I-55 Eastbound at Holly Hills Ave,NA,I-55 at Holly Hills Ave,NA,38.56021899999999,-90.25527799999999
90628,NA,Holly Hills Ave at I-55 Eastbound,NA,I-55 at Holly Hills Ave,NA,38.56021899999999,-90.25527799999999
90629,NA,I-55 Westbound at Holly Hills Ave,NA,I-55 at Holly Hills Ave,NA,38.56021899999999,-90.25527799999999
90630,NA,Holly Hills Ave at I-55 Westbound,NA,I-55 at Holly Hills Ave,NA,38.56021899999999,-90.25527799999999
90631,NA,I-55 at Koeln Ave,NA,I-55 at Koeln Ave,NA,38.55351949999999,-90.26593199999999
90632,NA,Koeln Ave at I-55,NA,I-55 at Koeln Ave,NA,38.55351949999999,-90.26593199999999
90633,NA,I-55 Northbound at Koeln Ave,NA,I-55 at Koeln Ave,NA,38.55351949999999,-90.26593199999999
90634,NA,Koeln Ave at I-55 Northbound,NA,I-55 at Koeln Ave,NA,38.55351949999999,-90.26593199999999
90635,NA,I-55 Southbound at Koeln Ave,NA,I-55 at Koeln Ave,NA,38.55351949999999,-90.26593199999999
90636,NA,Koeln Ave at I-55 Southbound,NA,I-55 at Koeln Ave,NA,38.55351949999999,-90.26593199999999
90637,NA,I-55 Eastbound at Koeln Ave,NA,I-55 at Koeln Ave,NA,38.55351949999999,-90.26593199999999
90638,NA,Koeln Ave at I-55 Eastbound,NA,I-55 at Koeln Ave,NA,38.55351949999999,-90.26593199999999
90639,NA,I-55 Westbound at Koeln Ave,NA,I-55 at Koeln Ave,NA,38.55351949999999,-90.26593199999999
90640,NA,Koeln Ave at I-55 Westbound,NA,I-55 at Koeln Ave,NA,38.55351949999999,-90.26593199999999
90641,NA,I-55 at Lafayette Ave,NA,I-55 at Lafayette Ave,NA,38.611340999999996,-90.20378449999998
90642,NA,Lafayette Ave at I-55,NA,I-55 at Lafayette Ave,NA,38.611340999999996,-90.20378449999998
90643,NA,I-55 Northbound at Lafayette Ave,NA,I-55 at Lafayette Ave,NA,38.611340999999996,-90.20378449999998
90644,NA,Lafayette Ave at I-55 Northbound,NA,I-55 at Lafayette Ave,NA,38.611340999999996,-90.20378449999998
90645,NA,I-55 Southbound at Lafayette Ave,NA,I-55 at Lafayette Ave,NA,38.611340999999996,-90.20378449999998
90646,NA,Lafayette Ave at I-55 Southbound,NA,I-55 at Lafayette Ave,NA,38.611340999999996,-90.20378449999998
90647,NA,I-55 Eastbound at Lafayette Ave,NA,I-55 at Lafayette Ave,NA,38.611340999999996,-90.20378449999998
90648,NA,Lafayette Ave at I-55 Eastbound,NA,I-55 at Lafayette Ave,NA,38.611340999999996,-90.20378449999998
90649,NA,I-55 Westbound at Lafayette Ave,NA,I-55 at Lafayette Ave,NA,38.611340999999996,-90.20378449999998
90650,NA,Lafayette Ave at I-55 Westbound,NA,I-55 at Lafayette Ave,NA,38.611340999999996,-90.20378449999998
90651,NA,I-55 at Leonor K Sullivan Blvd,NA,I-55 at Leonor K Sullivan Blvd,NA,38.61883999999999,-90.18620799999998
90652,NA,Leonor K Sullivan Blvd at I-55,NA,I-55 at Leonor K Sullivan Blvd,NA,38.61883999999999,-90.18620799999998
90653,NA,I-55 Northbound at Leonor K Sullivan Blvd,NA,I-55 at Leonor K Sullivan Blvd,NA,38.61883999999999,-90.18620799999998
90654,NA,Leonor K Sullivan Blvd at I-55 Northbound,NA,I-55 at Leonor K Sullivan Blvd,NA,38.61883999999999,-90.18620799999998
90655,NA,I-55 Southbound at Leonor K Sullivan Blvd,NA,I-55 at Leonor K Sullivan Blvd,NA,38.61883999999999,-90.18620799999998
90656,NA,Leonor K Sullivan Blvd at I-55 Southbound,NA,I-55 at Leonor K Sullivan Blvd,NA,38.61883999999999,-90.18620799999998
90657,NA,I-55 Eastbound at Leonor K Sullivan Blvd,NA,I-55 at Leonor K Sullivan Blvd,NA,38.61883999999999,-90.18620799999998
90658,NA,Leonor K Sullivan Blvd at I-55 Eastbound,NA,I-55 at Leonor K Sullivan Blvd,NA,38.61883999999999,-90.18620799999998
90659,NA,I-55 Westbound at Leonor K Sullivan Blvd,NA,I-55 at Leonor K Sullivan Blvd,NA,38.61883999999999,-90.18620799999998
90660,NA,Leonor K Sullivan Blvd at I-55 Westbound,NA,I-55 at Leonor K Sullivan Blvd,NA,38.61883999999999,-90.18620799999998
90661,NA,I-55 at Lombard St,NA,I-55 at Lombard St,NA,38.61735249999999,-90.1915125
90662,NA,Lombard St at I-55,NA,I-55 at Lombard St,NA,38.61735249999999,-90.1915125
90663,NA,I-55 Northbound at Lombard St,NA,I-55 at Lombard St,NA,38.61735249999999,-90.1915125
90664,NA,Lombard St at I-55 Northbound,NA,I-55 at Lombard St,NA,38.61735249999999,-90.1915125
90665,NA,I-55 Southbound at Lombard St,NA,I-55 at Lombard St,NA,38.61735249999999,-90.1915125
90666,NA,Lombard St at I-55 Southbound,NA,I-55 at Lombard St,NA,38.61735249999999,-90.1915125
90667,NA,I-55 Eastbound at Lombard St,NA,I-55 at Lombard St,NA,38.61735249999999,-90.1915125
90668,NA,Lombard St at I-55 Eastbound,NA,I-55 at Lombard St,NA,38.61735249999999,-90.1915125
90669,NA,I-55 Westbound at Lombard St,NA,I-55 at Lombard St,NA,38.61735249999999,-90.1915125
90670,NA,Lombard St at I-55 Westbound,NA,I-55 at Lombard St,NA,38.61735249999999,-90.1915125
90671,NA,I-55 at Loughborough Ave,NA,I-55 at Loughborough Ave,NA,38.55673399999999,-90.25922599999998
90672,NA,Loughborough Ave at I-55,NA,I-55 at Loughborough Ave,NA,38.55673399999999,-90.25922599999998
90673,NA,I-55 Northbound at Loughborough Ave,NA,I-55 at Loughborough Ave,NA,38.55673399999999,-90.25922599999998
90674,NA,Loughborough Ave at I-55 Northbound,NA,I-55 at Loughborough Ave,NA,38.55673399999999,-90.25922599999998
90675,NA,I-55 Southbound at Loughborough Ave,NA,I-55 at Loughborough Ave,NA,38.55673399999999,-90.25922599999998
90676,NA,Loughborough Ave at I-55 Southbound,NA,I-55 at Loughborough Ave,NA,38.55673399999999,-90.25922599999998
90677,NA,I-55 Eastbound at Loughborough Ave,NA,I-55 at Loughborough Ave,NA,38.55673399999999,-90.25922599999998
90678,NA,Loughborough Ave at I-55 Eastbound,NA,I-55 at Loughborough Ave,NA,38.55673399999999,-90.25922599999998
90679,NA,I-55 Westbound at Loughborough Ave,NA,I-55 at Loughborough Ave,NA,38.55673399999999,-90.25922599999998
90680,NA,Loughborough Ave at I-55 Westbound,NA,I-55 at Loughborough Ave,NA,38.55673399999999,-90.25922599999998
90681,NA,I-55 at Park Ave,NA,I-55 at Park Ave,NA,38.613265999999996,-90.19903649999999
90682,NA,Park Ave at I-55,NA,I-55 at Park Ave,NA,38.613265999999996,-90.19903649999999
90683,NA,I-55 Northbound at Park Ave,NA,I-55 at Park Ave,NA,38.613265999999996,-90.19903649999999
90684,NA,Park Ave at I-55 Northbound,NA,I-55 at Park Ave,NA,38.613265999999996,-90.19903649999999
90685,NA,I-55 Southbound at Park Ave,NA,I-55 at Park Ave,NA,38.613265999999996,-90.19903649999999
90686,NA,Park Ave at I-55 Southbound,NA,I-55 at Park Ave,NA,38.613265999999996,-90.19903649999999
90687,NA,I-55 Eastbound at Park Ave,NA,I-55 at Park Ave,NA,38.613265999999996,-90.19903649999999
90688,NA,Park Ave at I-55 Eastbound,NA,I-55 at Park Ave,NA,38.613265999999996,-90.19903649999999
90689,NA,I-55 Westbound at Park Ave,NA,I-55 at Park Ave,NA,38.613265999999996,-90.19903649999999
90690,NA,Park Ave at I-55 Westbound,NA,I-55 at Park Ave,NA,38.613265999999996,-90.19903649999999
90691,NA,I-55 at Pestalozzi St,NA,I-55 at Pestalozzi St,NA,38.59870499999999,-90.21562399999999
90692,NA,Pestalozzi St at I-55,NA,I-55 at Pestalozzi St,NA,38.59870499999999,-90.21562399999999
90693,NA,I-55 Northbound at Pestalozzi St,NA,I-55 at Pestalozzi St,NA,38.59870499999999,-90.21562399999999
90694,NA,Pestalozzi St at I-55 Northbound,NA,I-55 at Pestalozzi St,NA,38.59870499999999,-90.21562399999999
90695,NA,I-55 Southbound at Pestalozzi St,NA,I-55 at Pestalozzi St,NA,38.59870499999999,-90.21562399999999
90696,NA,Pestalozzi St at I-55 Southbound,NA,I-55 at Pestalozzi St,NA,38.59870499999999,-90.21562399999999
90697,NA,I-55 Eastbound at Pestalozzi St,NA,I-55 at Pestalozzi St,NA,38.59870499999999,-90.21562399999999
90698,NA,Pestalozzi St at I-55 Eastbound,NA,I-55 at Pestalozzi St,NA,38.59870499999999,-90.21562399999999
90699,NA,I-55 Westbound at Pestalozzi St,NA,I-55 at Pestalozzi St,NA,38.59870499999999,-90.21562399999999
90700,NA,Pestalozzi St at I-55 Westbound,NA,I-55 at Pestalozzi St,NA,38.59870499999999,-90.21562399999999
90701,NA,I-55 at Poplar St Brg,NA,I-55 at Poplar St Brg,NA,38.61996533333333,-90.18967133333332
90702,NA,Poplar St Brg at I-55,NA,I-55 at Poplar St Brg,NA,38.61996533333333,-90.18967133333332
90703,NA,I-55 Northbound at Poplar St Brg,NA,I-55 at Poplar St Brg,NA,38.61996533333333,-90.18967133333332
90704,NA,Poplar St Brg at I-55 Northbound,NA,I-55 at Poplar St Brg,NA,38.61996533333333,-90.18967133333332
90705,NA,I-55 Southbound at Poplar St Brg,NA,I-55 at Poplar St Brg,NA,38.61996533333333,-90.18967133333332
90706,NA,Poplar St Brg at I-55 Southbound,NA,I-55 at Poplar St Brg,NA,38.61996533333333,-90.18967133333332
90707,NA,I-55 Eastbound at Poplar St Brg,NA,I-55 at Poplar St Brg,NA,38.61996533333333,-90.18967133333332
90708,NA,Poplar St Brg at I-55 Eastbound,NA,I-55 at Poplar St Brg,NA,38.61996533333333,-90.18967133333332
90709,NA,I-55 Westbound at Poplar St Brg,NA,I-55 at Poplar St Brg,NA,38.61996533333333,-90.18967133333332
90710,NA,Poplar St Brg at I-55 Westbound,NA,I-55 at Poplar St Brg,NA,38.61996533333333,-90.18967133333332
90711,NA,I-55 at Potomac St,NA,I-55 at Potomac St,NA,38.58825399999999,-90.21439249999997
90712,NA,Potomac St at I-55,NA,I-55 at Potomac St,NA,38.58825399999999,-90.21439249999997
90713,NA,I-55 Northbound at Potomac St,NA,I-55 at Potomac St,NA,38.58825399999999,-90.21439249999997
90714,NA,Potomac St at I-55 Northbound,NA,I-55 at Potomac St,NA,38.58825399999999,-90.21439249999997
90715,NA,I-55 Southbound at Potomac St,NA,I-55 at Potomac St,NA,38.58825399999999,-90.21439249999997
90716,NA,Potomac St at I-55 Southbound,NA,I-55 at Potomac St,NA,38.58825399999999,-90.21439249999997
90717,NA,I-55 Eastbound at Potomac St,NA,I-55 at Potomac St,NA,38.58825399999999,-90.21439249999997
90718,NA,Potomac St at I-55 Eastbound,NA,I-55 at Potomac St,NA,38.58825399999999,-90.21439249999997
90719,NA,I-55 Westbound at Potomac St,NA,I-55 at Potomac St,NA,38.58825399999999,-90.21439249999997
90720,NA,Potomac St at I-55 Westbound,NA,I-55 at Potomac St,NA,38.58825399999999,-90.21439249999997
90721,NA,I-55 at Russell Ave,NA,I-55 at Russell Ave,NA,38.60850799999999,-90.21241899999998
90722,NA,Russell Ave at I-55,NA,I-55 at Russell Ave,NA,38.60850799999999,-90.21241899999998
90723,NA,I-55 Northbound at Russell Ave,NA,I-55 at Russell Ave,NA,38.60850799999999,-90.21241899999998
90724,NA,Russell Ave at I-55 Northbound,NA,I-55 at Russell Ave,NA,38.60850799999999,-90.21241899999998
90725,NA,I-55 Southbound at Russell Ave,NA,I-55 at Russell Ave,NA,38.60850799999999,-90.21241899999998
90726,NA,Russell Ave at I-55 Southbound,NA,I-55 at Russell Ave,NA,38.60850799999999,-90.21241899999998
90727,NA,I-55 Eastbound at Russell Ave,NA,I-55 at Russell Ave,NA,38.60850799999999,-90.21241899999998
90728,NA,Russell Ave at I-55 Eastbound,NA,I-55 at Russell Ave,NA,38.60850799999999,-90.21241899999998
90729,NA,I-55 Westbound at Russell Ave,NA,I-55 at Russell Ave,NA,38.60850799999999,-90.21241899999998
90730,NA,Russell Ave at I-55 Westbound,NA,I-55 at Russell Ave,NA,38.60850799999999,-90.21241899999998
90731,NA,I-55 at Russell Blvd,NA,I-55 at Russell Blvd,NA,38.60850799999999,-90.21241899999998
90732,NA,Russell Blvd at I-55,NA,I-55 at Russell Blvd,NA,38.60850799999999,-90.21241899999998
90733,NA,I-55 Northbound at Russell Blvd,NA,I-55 at Russell Blvd,NA,38.60850799999999,-90.21241899999998
90734,NA,Russell Blvd at I-55 Northbound,NA,I-55 at Russell Blvd,NA,38.60850799999999,-90.21241899999998
90735,NA,I-55 Southbound at Russell Blvd,NA,I-55 at Russell Blvd,NA,38.60850799999999,-90.21241899999998
90736,NA,Russell Blvd at I-55 Southbound,NA,I-55 at Russell Blvd,NA,38.60850799999999,-90.21241899999998
90737,NA,I-55 Eastbound at Russell Blvd,NA,I-55 at Russell Blvd,NA,38.60850799999999,-90.21241899999998
90738,NA,Russell Blvd at I-55 Eastbound,NA,I-55 at Russell Blvd,NA,38.60850799999999,-90.21241899999998
90739,NA,I-55 Westbound at Russell Blvd,NA,I-55 at Russell Blvd,NA,38.60850799999999,-90.21241899999998
90740,NA,Russell Blvd at I-55 Westbound,NA,I-55 at Russell Blvd,NA,38.60850799999999,-90.21241899999998
90741,NA,I-55 at S 12th St,NA,I-55 at S 12th St,NA,38.610206999999996,-90.20849099999998
90742,NA,S 12th St at I-55,NA,I-55 at S 12th St,NA,38.610206999999996,-90.20849099999998
90743,NA,I-55 Northbound at S 12th St,NA,I-55 at S 12th St,NA,38.610206999999996,-90.20849099999998
90744,NA,S 12th St at I-55 Northbound,NA,I-55 at S 12th St,NA,38.610206999999996,-90.20849099999998
90745,NA,I-55 Southbound at S 12th St,NA,I-55 at S 12th St,NA,38.610206999999996,-90.20849099999998
90746,NA,S 12th St at I-55 Southbound,NA,I-55 at S 12th St,NA,38.610206999999996,-90.20849099999998
90747,NA,I-55 Eastbound at S 12th St,NA,I-55 at S 12th St,NA,38.610206999999996,-90.20849099999998
90748,NA,S 12th St at I-55 Eastbound,NA,I-55 at S 12th St,NA,38.610206999999996,-90.20849099999998
90749,NA,I-55 Westbound at S 12th St,NA,I-55 at S 12th St,NA,38.610206999999996,-90.20849099999998
90750,NA,S 12th St at I-55 Westbound,NA,I-55 at S 12th St,NA,38.610206999999996,-90.20849099999998
90751,NA,I-55 at S 1st St,NA,I-55 at S 1st St,NA,38.61914649999999,-90.18719399999998
90752,NA,S 1st St at I-55,NA,I-55 at S 1st St,NA,38.61914649999999,-90.18719399999998
90753,NA,I-55 Northbound at S 1st St,NA,I-55 at S 1st St,NA,38.61914649999999,-90.18719399999998
90754,NA,S 1st St at I-55 Northbound,NA,I-55 at S 1st St,NA,38.61914649999999,-90.18719399999998
90755,NA,I-55 Southbound at S 1st St,NA,I-55 at S 1st St,NA,38.61914649999999,-90.18719399999998
90756,NA,S 1st St at I-55 Southbound,NA,I-55 at S 1st St,NA,38.61914649999999,-90.18719399999998
90757,NA,I-55 Eastbound at S 1st St,NA,I-55 at S 1st St,NA,38.61914649999999,-90.18719399999998
90758,NA,S 1st St at I-55 Eastbound,NA,I-55 at S 1st St,NA,38.61914649999999,-90.18719399999998
90759,NA,I-55 Westbound at S 1st St,NA,I-55 at S 1st St,NA,38.61914649999999,-90.18719399999998
90760,NA,S 1st St at I-55 Westbound,NA,I-55 at S 1st St,NA,38.61914649999999,-90.18719399999998
90761,NA,I-55 at S 2nd St,NA,I-55 at S 2nd St,NA,38.605118499999996,-90.20116299999998
90762,NA,S 2nd St at I-55,NA,I-55 at S 2nd St,NA,38.605118499999996,-90.20116299999998
90763,NA,I-55 Northbound at S 2nd St,NA,I-55 at S 2nd St,NA,38.605118499999996,-90.20116299999998
90764,NA,S 2nd St at I-55 Northbound,NA,I-55 at S 2nd St,NA,38.605118499999996,-90.20116299999998
90765,NA,I-55 Southbound at S 2nd St,NA,I-55 at S 2nd St,NA,38.605118499999996,-90.20116299999998
90766,NA,S 2nd St at I-55 Southbound,NA,I-55 at S 2nd St,NA,38.605118499999996,-90.20116299999998
90767,NA,I-55 Eastbound at S 2nd St,NA,I-55 at S 2nd St,NA,38.605118499999996,-90.20116299999998
90768,NA,S 2nd St at I-55 Eastbound,NA,I-55 at S 2nd St,NA,38.605118499999996,-90.20116299999998
90769,NA,I-55 Westbound at S 2nd St,NA,I-55 at S 2nd St,NA,38.605118499999996,-90.20116299999998
90770,NA,S 2nd St at I-55 Westbound,NA,I-55 at S 2nd St,NA,38.605118499999996,-90.20116299999998
90771,NA,I-55 at S 4th St,NA,I-55 at S 4th St,NA,38.61495899999999,-90.19430499999999
90772,NA,S 4th St at I-55,NA,I-55 at S 4th St,NA,38.61495899999999,-90.19430499999999
90773,NA,I-55 Northbound at S 4th St,NA,I-55 at S 4th St,NA,38.61495899999999,-90.19430499999999
90774,NA,S 4th St at I-55 Northbound,NA,I-55 at S 4th St,NA,38.61495899999999,-90.19430499999999
90775,NA,I-55 Southbound at S 4th St,NA,I-55 at S 4th St,NA,38.61495899999999,-90.19430499999999
90776,NA,S 4th St at I-55 Southbound,NA,I-55 at S 4th St,NA,38.61495899999999,-90.19430499999999
90777,NA,I-55 Eastbound at S 4th St,NA,I-55 at S 4th St,NA,38.61495899999999,-90.19430499999999
90778,NA,S 4th St at I-55 Eastbound,NA,I-55 at S 4th St,NA,38.61495899999999,-90.19430499999999
90779,NA,I-55 Westbound at S 4th St,NA,I-55 at S 4th St,NA,38.61495899999999,-90.19430499999999
90780,NA,S 4th St at I-55 Westbound,NA,I-55 at S 4th St,NA,38.61495899999999,-90.19430499999999
90781,NA,I-55 at S 7th St,NA,I-55 at S 7th St,NA,38.61389999999999,-90.19710599999999
90782,NA,S 7th St at I-55,NA,I-55 at S 7th St,NA,38.61389999999999,-90.19710599999999
90783,NA,I-55 Northbound at S 7th St,NA,I-55 at S 7th St,NA,38.61389999999999,-90.19710599999999
90784,NA,S 7th St at I-55 Northbound,NA,I-55 at S 7th St,NA,38.61389999999999,-90.19710599999999
90785,NA,I-55 Southbound at S 7th St,NA,I-55 at S 7th St,NA,38.61389999999999,-90.19710599999999
90786,NA,S 7th St at I-55 Southbound,NA,I-55 at S 7th St,NA,38.61389999999999,-90.19710599999999
90787,NA,I-55 Eastbound at S 7th St,NA,I-55 at S 7th St,NA,38.61389999999999,-90.19710599999999
90788,NA,S 7th St at I-55 Eastbound,NA,I-55 at S 7th St,NA,38.61389999999999,-90.19710599999999
90789,NA,I-55 Westbound at S 7th St,NA,I-55 at S 7th St,NA,38.61389999999999,-90.19710599999999
90790,NA,S 7th St at I-55 Westbound,NA,I-55 at S 7th St,NA,38.61389999999999,-90.19710599999999
90791,NA,I-55 at S Broadway,NA,I-55 at S Broadway,NA,38.59546866666666,-90.21207277777776
90792,NA,S Broadway at I-55,NA,I-55 at S Broadway,NA,38.59546866666666,-90.21207277777776
90793,NA,I-55 Northbound at S Broadway,NA,I-55 at S Broadway,NA,38.59546866666666,-90.21207277777776
90794,NA,S Broadway at I-55 Northbound,NA,I-55 at S Broadway,NA,38.59546866666666,-90.21207277777776
90795,NA,I-55 Southbound at S Broadway,NA,I-55 at S Broadway,NA,38.59546866666666,-90.21207277777776
90796,NA,S Broadway at I-55 Southbound,NA,I-55 at S Broadway,NA,38.59546866666666,-90.21207277777776
90797,NA,I-55 Eastbound at S Broadway,NA,I-55 at S Broadway,NA,38.59546866666666,-90.21207277777776
90798,NA,S Broadway at I-55 Eastbound,NA,I-55 at S Broadway,NA,38.59546866666666,-90.21207277777776
90799,NA,I-55 Westbound at S Broadway,NA,I-55 at S Broadway,NA,38.59546866666666,-90.21207277777776
90800,NA,S Broadway at I-55 Westbound,NA,I-55 at S Broadway,NA,38.59546866666666,-90.21207277777776
90801,NA,I-55 at S Tucker Blvd,NA,I-55 at S Tucker Blvd,NA,38.610373499999994,-90.20838299999998
90802,NA,S Tucker Blvd at I-55,NA,I-55 at S Tucker Blvd,NA,38.610373499999994,-90.20838299999998
90803,NA,I-55 Northbound at S Tucker Blvd,NA,I-55 at S Tucker Blvd,NA,38.610373499999994,-90.20838299999998
90804,NA,S Tucker Blvd at I-55 Northbound,NA,I-55 at S Tucker Blvd,NA,38.610373499999994,-90.20838299999998
90805,NA,I-55 Southbound at S Tucker Blvd,NA,I-55 at S Tucker Blvd,NA,38.610373499999994,-90.20838299999998
90806,NA,S Tucker Blvd at I-55 Southbound,NA,I-55 at S Tucker Blvd,NA,38.610373499999994,-90.20838299999998
90807,NA,I-55 Eastbound at S Tucker Blvd,NA,I-55 at S Tucker Blvd,NA,38.610373499999994,-90.20838299999998
90808,NA,S Tucker Blvd at I-55 Eastbound,NA,I-55 at S Tucker Blvd,NA,38.610373499999994,-90.20838299999998
90809,NA,I-55 Westbound at S Tucker Blvd,NA,I-55 at S Tucker Blvd,NA,38.610373499999994,-90.20838299999998
90810,NA,S Tucker Blvd at I-55 Westbound,NA,I-55 at S Tucker Blvd,NA,38.610373499999994,-90.20838299999998
90811,NA,I-55 at S Wharf St,NA,I-55 at S Wharf St,NA,38.61889649999999,-90.18618649999999
90812,NA,S Wharf St at I-55,NA,I-55 at S Wharf St,NA,38.61889649999999,-90.18618649999999
90813,NA,I-55 Northbound at S Wharf St,NA,I-55 at S Wharf St,NA,38.61889649999999,-90.18618649999999
90814,NA,S Wharf St at I-55 Northbound,NA,I-55 at S Wharf St,NA,38.61889649999999,-90.18618649999999
90815,NA,I-55 Southbound at S Wharf St,NA,I-55 at S Wharf St,NA,38.61889649999999,-90.18618649999999
90816,NA,S Wharf St at I-55 Southbound,NA,I-55 at S Wharf St,NA,38.61889649999999,-90.18618649999999
90817,NA,I-55 Eastbound at S Wharf St,NA,I-55 at S Wharf St,NA,38.61889649999999,-90.18618649999999
90818,NA,S Wharf St at I-55 Eastbound,NA,I-55 at S Wharf St,NA,38.61889649999999,-90.18618649999999
90819,NA,I-55 Westbound at S Wharf St,NA,I-55 at S Wharf St,NA,38.61889649999999,-90.18618649999999
90820,NA,S Wharf St at I-55 Westbound,NA,I-55 at S Wharf St,NA,38.61889649999999,-90.18618649999999
90821,NA,I-55 at Sidney St,NA,I-55 at Sidney St,NA,38.6027905,-90.2145875
90822,NA,Sidney St at I-55,NA,I-55 at Sidney St,NA,38.6027905,-90.2145875
90823,NA,I-55 Northbound at Sidney St,NA,I-55 at Sidney St,NA,38.6027905,-90.2145875
90824,NA,Sidney St at I-55 Northbound,NA,I-55 at Sidney St,NA,38.6027905,-90.2145875
90825,NA,I-55 Southbound at Sidney St,NA,I-55 at Sidney St,NA,38.6027905,-90.2145875
90826,NA,Sidney St at I-55 Southbound,NA,I-55 at Sidney St,NA,38.6027905,-90.2145875
90827,NA,I-55 Eastbound at Sidney St,NA,I-55 at Sidney St,NA,38.6027905,-90.2145875
90828,NA,Sidney St at I-55 Eastbound,NA,I-55 at Sidney St,NA,38.6027905,-90.2145875
90829,NA,I-55 Westbound at Sidney St,NA,I-55 at Sidney St,NA,38.6027905,-90.2145875
90830,NA,Sidney St at I-55 Westbound,NA,I-55 at Sidney St,NA,38.6027905,-90.2145875
90831,NA,I-55 at State Hwy 100,NA,I-55 at State Hwy 100,NA,38.616686,-90.192165
90832,NA,State Hwy 100 at I-55,NA,I-55 at State Hwy 100,NA,38.616686,-90.192165
90833,NA,I-55 Northbound at State Hwy 100,NA,I-55 at State Hwy 100,NA,38.616686,-90.192165
90834,NA,State Hwy 100 at I-55 Northbound,NA,I-55 at State Hwy 100,NA,38.616686,-90.192165
90835,NA,I-55 Southbound at State Hwy 100,NA,I-55 at State Hwy 100,NA,38.616686,-90.192165
90836,NA,State Hwy 100 at I-55 Southbound,NA,I-55 at State Hwy 100,NA,38.616686,-90.192165
90837,NA,I-55 Eastbound at State Hwy 100,NA,I-55 at State Hwy 100,NA,38.616686,-90.192165
90838,NA,State Hwy 100 at I-55 Eastbound,NA,I-55 at State Hwy 100,NA,38.616686,-90.192165
90839,NA,I-55 Westbound at State Hwy 100,NA,I-55 at State Hwy 100,NA,38.616686,-90.192165
90840,NA,State Hwy 100 at I-55 Westbound,NA,I-55 at State Hwy 100,NA,38.616686,-90.192165
90841,NA,I-55 at State Hwy 231,NA,I-55 at State Hwy 231,NA,38.57403399999999,-90.23377699999999
90842,NA,State Hwy 231 at I-55,NA,I-55 at State Hwy 231,NA,38.57403399999999,-90.23377699999999
90843,NA,I-55 Northbound at State Hwy 231,NA,I-55 at State Hwy 231,NA,38.57403399999999,-90.23377699999999
90844,NA,State Hwy 231 at I-55 Northbound,NA,I-55 at State Hwy 231,NA,38.57403399999999,-90.23377699999999
90845,NA,I-55 Southbound at State Hwy 231,NA,I-55 at State Hwy 231,NA,38.57403399999999,-90.23377699999999
90846,NA,State Hwy 231 at I-55 Southbound,NA,I-55 at State Hwy 231,NA,38.57403399999999,-90.23377699999999
90847,NA,I-55 Eastbound at State Hwy 231,NA,I-55 at State Hwy 231,NA,38.57403399999999,-90.23377699999999
90848,NA,State Hwy 231 at I-55 Eastbound,NA,I-55 at State Hwy 231,NA,38.57403399999999,-90.23377699999999
90849,NA,I-55 Westbound at State Hwy 231,NA,I-55 at State Hwy 231,NA,38.57403399999999,-90.23377699999999
90850,NA,State Hwy 231 at I-55 Westbound,NA,I-55 at State Hwy 231,NA,38.57403399999999,-90.23377699999999
90851,NA,I-55 at State Hwy 30,NA,I-55 at State Hwy 30,NA,38.608395,-90.21246899999998
90852,NA,State Hwy 30 at I-55,NA,I-55 at State Hwy 30,NA,38.608395,-90.21246899999998
90853,NA,I-55 Northbound at State Hwy 30,NA,I-55 at State Hwy 30,NA,38.608395,-90.21246899999998
90854,NA,State Hwy 30 at I-55 Northbound,NA,I-55 at State Hwy 30,NA,38.608395,-90.21246899999998
90855,NA,I-55 Southbound at State Hwy 30,NA,I-55 at State Hwy 30,NA,38.608395,-90.21246899999998
90856,NA,State Hwy 30 at I-55 Southbound,NA,I-55 at State Hwy 30,NA,38.608395,-90.21246899999998
90857,NA,I-55 Eastbound at State Hwy 30,NA,I-55 at State Hwy 30,NA,38.608395,-90.21246899999998
90858,NA,State Hwy 30 at I-55 Eastbound,NA,I-55 at State Hwy 30,NA,38.608395,-90.21246899999998
90859,NA,I-55 Westbound at State Hwy 30,NA,I-55 at State Hwy 30,NA,38.608395,-90.21246899999998
90860,NA,State Hwy 30 at I-55 Westbound,NA,I-55 at State Hwy 30,NA,38.608395,-90.21246899999998
90861,NA,I-55 at US Hwy 40,NA,I-55 at US Hwy 40,NA,38.61996533333333,-90.18967133333332
90862,NA,US Hwy 40 at I-55,NA,I-55 at US Hwy 40,NA,38.61996533333333,-90.18967133333332
90863,NA,I-55 Northbound at US Hwy 40,NA,I-55 at US Hwy 40,NA,38.61996533333333,-90.18967133333332
90864,NA,US Hwy 40 at I-55 Northbound,NA,I-55 at US Hwy 40,NA,38.61996533333333,-90.18967133333332
90865,NA,I-55 Southbound at US Hwy 40,NA,I-55 at US Hwy 40,NA,38.61996533333333,-90.18967133333332
90866,NA,US Hwy 40 at I-55 Southbound,NA,I-55 at US Hwy 40,NA,38.61996533333333,-90.18967133333332
90867,NA,I-55 Eastbound at US Hwy 40,NA,I-55 at US Hwy 40,NA,38.61996533333333,-90.18967133333332
90868,NA,US Hwy 40 at I-55 Eastbound,NA,I-55 at US Hwy 40,NA,38.61996533333333,-90.18967133333332
90869,NA,I-55 Westbound at US Hwy 40,NA,I-55 at US Hwy 40,NA,38.61996533333333,-90.18967133333332
90870,NA,US Hwy 40 at I-55 Westbound,NA,I-55 at US Hwy 40,NA,38.61996533333333,-90.18967133333332
90871,NA,I-55 at Utah St,NA,I-55 at Utah St,NA,38.593855,-90.21560099999999
90872,NA,Utah St at I-55,NA,I-55 at Utah St,NA,38.593855,-90.21560099999999
90873,NA,I-55 Northbound at Utah St,NA,I-55 at Utah St,NA,38.593855,-90.21560099999999
90874,NA,Utah St at I-55 Northbound,NA,I-55 at Utah St,NA,38.593855,-90.21560099999999
90875,NA,I-55 Southbound at Utah St,NA,I-55 at Utah St,NA,38.593855,-90.21560099999999
90876,NA,Utah St at I-55 Southbound,NA,I-55 at Utah St,NA,38.593855,-90.21560099999999
90877,NA,I-55 Eastbound at Utah St,NA,I-55 at Utah St,NA,38.593855,-90.21560099999999
90878,NA,Utah St at I-55 Eastbound,NA,I-55 at Utah St,NA,38.593855,-90.21560099999999
90879,NA,I-55 Westbound at Utah St,NA,I-55 at Utah St,NA,38.593855,-90.21560099999999
90880,NA,Utah St at I-55 Westbound,NA,I-55 at Utah St,NA,38.593855,-90.21560099999999
90881,NA,I-55 at Virginia Ave,NA,I-55 at Virginia Ave,NA,38.56273849999999,-90.24640549999998
90882,NA,Virginia Ave at I-55,NA,I-55 at Virginia Ave,NA,38.56273849999999,-90.24640549999998
90883,NA,I-55 Northbound at Virginia Ave,NA,I-55 at Virginia Ave,NA,38.56273849999999,-90.24640549999998
90884,NA,Virginia Ave at I-55 Northbound,NA,I-55 at Virginia Ave,NA,38.56273849999999,-90.24640549999998
90885,NA,I-55 Southbound at Virginia Ave,NA,I-55 at Virginia Ave,NA,38.56273849999999,-90.24640549999998
90886,NA,Virginia Ave at I-55 Southbound,NA,I-55 at Virginia Ave,NA,38.56273849999999,-90.24640549999998
90887,NA,I-55 Eastbound at Virginia Ave,NA,I-55 at Virginia Ave,NA,38.56273849999999,-90.24640549999998
90888,NA,Virginia Ave at I-55 Eastbound,NA,I-55 at Virginia Ave,NA,38.56273849999999,-90.24640549999998
90889,NA,I-55 Westbound at Virginia Ave,NA,I-55 at Virginia Ave,NA,38.56273849999999,-90.24640549999998
90890,NA,Virginia Ave at I-55 Westbound,NA,I-55 at Virginia Ave,NA,38.56273849999999,-90.24640549999998
90891,NA,I-55 at Weber Rd,NA,I-55 at Weber Rd,NA,38.5519235,-90.28010699999999
90892,NA,Weber Rd at I-55,NA,I-55 at Weber Rd,NA,38.5519235,-90.28010699999999
90893,NA,I-55 Northbound at Weber Rd,NA,I-55 at Weber Rd,NA,38.5519235,-90.28010699999999
90894,NA,Weber Rd at I-55 Northbound,NA,I-55 at Weber Rd,NA,38.5519235,-90.28010699999999
90895,NA,I-55 Southbound at Weber Rd,NA,I-55 at Weber Rd,NA,38.5519235,-90.28010699999999
90896,NA,Weber Rd at I-55 Southbound,NA,I-55 at Weber Rd,NA,38.5519235,-90.28010699999999
90897,NA,I-55 Eastbound at Weber Rd,NA,I-55 at Weber Rd,NA,38.5519235,-90.28010699999999
90898,NA,Weber Rd at I-55 Eastbound,NA,I-55 at Weber Rd,NA,38.5519235,-90.28010699999999
90899,NA,I-55 Westbound at Weber Rd,NA,I-55 at Weber Rd,NA,38.5519235,-90.28010699999999
90900,NA,Weber Rd at I-55 Westbound,NA,I-55 at Weber Rd,NA,38.5519235,-90.28010699999999
90901,NA,I-64 at Clayton Ave,NA,I-64 at Clayton Ave,NA,38.63169099999999,-90.27471574999998
90902,NA,Clayton Ave at I-64,NA,I-64 at Clayton Ave,NA,38.63169099999999,-90.27471574999998
90903,NA,I-64 Northbound at Clayton Ave,NA,I-64 at Clayton Ave,NA,38.63169099999999,-90.27471574999998
90904,NA,Clayton Ave at I-64 Northbound,NA,I-64 at Clayton Ave,NA,38.63169099999999,-90.27471574999998
90905,NA,I-64 Southbound at Clayton Ave,NA,I-64 at Clayton Ave,NA,38.63169099999999,-90.27471574999998
90906,NA,Clayton Ave at I-64 Southbound,NA,I-64 at Clayton Ave,NA,38.63169099999999,-90.27471574999998
90907,NA,I-64 Eastbound at Clayton Ave,NA,I-64 at Clayton Ave,NA,38.63169099999999,-90.27471574999998
90908,NA,Clayton Ave at I-64 Eastbound,NA,I-64 at Clayton Ave,NA,38.63169099999999,-90.27471574999998
90909,NA,I-64 Westbound at Clayton Ave,NA,I-64 at Clayton Ave,NA,38.63169099999999,-90.27471574999998
90910,NA,Clayton Ave at I-64 Westbound,NA,I-64 at Clayton Ave,NA,38.63169099999999,-90.27471574999998
90911,NA,I-64 at Concourse Dr,NA,I-64 at Concourse Dr,NA,38.63187049999999,-90.28638899999999
90912,NA,Concourse Dr at I-64,NA,I-64 at Concourse Dr,NA,38.63187049999999,-90.28638899999999
90913,NA,I-64 Northbound at Concourse Dr,NA,I-64 at Concourse Dr,NA,38.63187049999999,-90.28638899999999
90914,NA,Concourse Dr at I-64 Northbound,NA,I-64 at Concourse Dr,NA,38.63187049999999,-90.28638899999999
90915,NA,I-64 Southbound at Concourse Dr,NA,I-64 at Concourse Dr,NA,38.63187049999999,-90.28638899999999
90916,NA,Concourse Dr at I-64 Southbound,NA,I-64 at Concourse Dr,NA,38.63187049999999,-90.28638899999999
90917,NA,I-64 Eastbound at Concourse Dr,NA,I-64 at Concourse Dr,NA,38.63187049999999,-90.28638899999999
90918,NA,Concourse Dr at I-64 Eastbound,NA,I-64 at Concourse Dr,NA,38.63187049999999,-90.28638899999999
90919,NA,I-64 Westbound at Concourse Dr,NA,I-64 at Concourse Dr,NA,38.63187049999999,-90.28638899999999
90920,NA,Concourse Dr at I-64 Westbound,NA,I-64 at Concourse Dr,NA,38.63187049999999,-90.28638899999999
90921,NA,I-64 at Leonor K Sullivan Blvd,NA,I-64 at Leonor K Sullivan Blvd,NA,38.61883999999999,-90.18620799999998
90922,NA,Leonor K Sullivan Blvd at I-64,NA,I-64 at Leonor K Sullivan Blvd,NA,38.61883999999999,-90.18620799999998
90923,NA,I-64 Northbound at Leonor K Sullivan Blvd,NA,I-64 at Leonor K Sullivan Blvd,NA,38.61883999999999,-90.18620799999998
90924,NA,Leonor K Sullivan Blvd at I-64 Northbound,NA,I-64 at Leonor K Sullivan Blvd,NA,38.61883999999999,-90.18620799999998
90925,NA,I-64 Southbound at Leonor K Sullivan Blvd,NA,I-64 at Leonor K Sullivan Blvd,NA,38.61883999999999,-90.18620799999998
90926,NA,Leonor K Sullivan Blvd at I-64 Southbound,NA,I-64 at Leonor K Sullivan Blvd,NA,38.61883999999999,-90.18620799999998
90927,NA,I-64 Eastbound at Leonor K Sullivan Blvd,NA,I-64 at Leonor K Sullivan Blvd,NA,38.61883999999999,-90.18620799999998
90928,NA,Leonor K Sullivan Blvd at I-64 Eastbound,NA,I-64 at Leonor K Sullivan Blvd,NA,38.61883999999999,-90.18620799999998
90929,NA,I-64 Westbound at Leonor K Sullivan Blvd,NA,I-64 at Leonor K Sullivan Blvd,NA,38.61883999999999,-90.18620799999998
90930,NA,Leonor K Sullivan Blvd at I-64 Westbound,NA,I-64 at Leonor K Sullivan Blvd,NA,38.61883999999999,-90.18620799999998
90931,NA,I-64 at Market St,NA,I-64 at Market St,NA,38.6309055,-90.23136799999997
90932,NA,Market St at I-64,NA,I-64 at Market St,NA,38.6309055,-90.23136799999997
90933,NA,I-64 Northbound at Market St,NA,I-64 at Market St,NA,38.6309055,-90.23136799999997
90934,NA,Market St at I-64 Northbound,NA,I-64 at Market St,NA,38.6309055,-90.23136799999997
90935,NA,I-64 Southbound at Market St,NA,I-64 at Market St,NA,38.6309055,-90.23136799999997
90936,NA,Market St at I-64 Southbound,NA,I-64 at Market St,NA,38.6309055,-90.23136799999997
90937,NA,I-64 Eastbound at Market St,NA,I-64 at Market St,NA,38.6309055,-90.23136799999997
90938,NA,Market St at I-64 Eastbound,NA,I-64 at Market St,NA,38.6309055,-90.23136799999997
90939,NA,I-64 Westbound at Market St,NA,I-64 at Market St,NA,38.6309055,-90.23136799999997
90940,NA,Market St at I-64 Westbound,NA,I-64 at Market St,NA,38.6309055,-90.23136799999997
90941,NA,I-64 at McCausland Ave,NA,I-64 at McCausland Ave,NA,38.629986,-90.30648499999998
90942,NA,McCausland Ave at I-64,NA,I-64 at McCausland Ave,NA,38.629986,-90.30648499999998
90943,NA,I-64 Northbound at McCausland Ave,NA,I-64 at McCausland Ave,NA,38.629986,-90.30648499999998
90944,NA,McCausland Ave at I-64 Northbound,NA,I-64 at McCausland Ave,NA,38.629986,-90.30648499999998
90945,NA,I-64 Southbound at McCausland Ave,NA,I-64 at McCausland Ave,NA,38.629986,-90.30648499999998
90946,NA,McCausland Ave at I-64 Southbound,NA,I-64 at McCausland Ave,NA,38.629986,-90.30648499999998
90947,NA,I-64 Eastbound at McCausland Ave,NA,I-64 at McCausland Ave,NA,38.629986,-90.30648499999998
90948,NA,McCausland Ave at I-64 Eastbound,NA,I-64 at McCausland Ave,NA,38.629986,-90.30648499999998
90949,NA,I-64 Westbound at McCausland Ave,NA,I-64 at McCausland Ave,NA,38.629986,-90.30648499999998
90950,NA,McCausland Ave at I-64 Westbound,NA,I-64 at McCausland Ave,NA,38.629986,-90.30648499999998
90951,NA,I-64 at Oakland Ave,NA,I-64 at Oakland Ave,NA,38.63235049999999,-90.30143949999999
90952,NA,Oakland Ave at I-64,NA,I-64 at Oakland Ave,NA,38.63235049999999,-90.30143949999999
90953,NA,I-64 Northbound at Oakland Ave,NA,I-64 at Oakland Ave,NA,38.63235049999999,-90.30143949999999
90954,NA,Oakland Ave at I-64 Northbound,NA,I-64 at Oakland Ave,NA,38.63235049999999,-90.30143949999999
90955,NA,I-64 Southbound at Oakland Ave,NA,I-64 at Oakland Ave,NA,38.63235049999999,-90.30143949999999
90956,NA,Oakland Ave at I-64 Southbound,NA,I-64 at Oakland Ave,NA,38.63235049999999,-90.30143949999999
90957,NA,I-64 Eastbound at Oakland Ave,NA,I-64 at Oakland Ave,NA,38.63235049999999,-90.30143949999999
90958,NA,Oakland Ave at I-64 Eastbound,NA,I-64 at Oakland Ave,NA,38.63235049999999,-90.30143949999999
90959,NA,I-64 Westbound at Oakland Ave,NA,I-64 at Oakland Ave,NA,38.63235049999999,-90.30143949999999
90960,NA,Oakland Ave at I-64 Westbound,NA,I-64 at Oakland Ave,NA,38.63235049999999,-90.30143949999999
90961,NA,I-64 at S 14th St,NA,I-64 at S 14th St,NA,38.623701,-90.20276849999999
90962,NA,S 14th St at I-64,NA,I-64 at S 14th St,NA,38.623701,-90.20276849999999
90963,NA,I-64 Northbound at S 14th St,NA,I-64 at S 14th St,NA,38.623701,-90.20276849999999
90964,NA,S 14th St at I-64 Northbound,NA,I-64 at S 14th St,NA,38.623701,-90.20276849999999
90965,NA,I-64 Southbound at S 14th St,NA,I-64 at S 14th St,NA,38.623701,-90.20276849999999
90966,NA,S 14th St at I-64 Southbound,NA,I-64 at S 14th St,NA,38.623701,-90.20276849999999
90967,NA,I-64 Eastbound at S 14th St,NA,I-64 at S 14th St,NA,38.623701,-90.20276849999999
90968,NA,S 14th St at I-64 Eastbound,NA,I-64 at S 14th St,NA,38.623701,-90.20276849999999
90969,NA,I-64 Westbound at S 14th St,NA,I-64 at S 14th St,NA,38.623701,-90.20276849999999
90970,NA,S 14th St at I-64 Westbound,NA,I-64 at S 14th St,NA,38.623701,-90.20276849999999
90971,NA,I-64 at S 18th St,NA,I-64 at S 18th St,NA,38.62488499999999,-90.20769299999999
90972,NA,S 18th St at I-64,NA,I-64 at S 18th St,NA,38.62488499999999,-90.20769299999999
90973,NA,I-64 Northbound at S 18th St,NA,I-64 at S 18th St,NA,38.62488499999999,-90.20769299999999
90974,NA,S 18th St at I-64 Northbound,NA,I-64 at S 18th St,NA,38.62488499999999,-90.20769299999999
90975,NA,I-64 Southbound at S 18th St,NA,I-64 at S 18th St,NA,38.62488499999999,-90.20769299999999
90976,NA,S 18th St at I-64 Southbound,NA,I-64 at S 18th St,NA,38.62488499999999,-90.20769299999999
90977,NA,I-64 Eastbound at S 18th St,NA,I-64 at S 18th St,NA,38.62488499999999,-90.20769299999999
90978,NA,S 18th St at I-64 Eastbound,NA,I-64 at S 18th St,NA,38.62488499999999,-90.20769299999999
90979,NA,I-64 Westbound at S 18th St,NA,I-64 at S 18th St,NA,38.62488499999999,-90.20769299999999
90980,NA,S 18th St at I-64 Westbound,NA,I-64 at S 18th St,NA,38.62488499999999,-90.20769299999999
90981,NA,I-64 at S 1st St,NA,I-64 at S 1st St,NA,38.61914649999999,-90.18719399999998
90982,NA,S 1st St at I-64,NA,I-64 at S 1st St,NA,38.61914649999999,-90.18719399999998
90983,NA,I-64 Northbound at S 1st St,NA,I-64 at S 1st St,NA,38.61914649999999,-90.18719399999998
90984,NA,S 1st St at I-64 Northbound,NA,I-64 at S 1st St,NA,38.61914649999999,-90.18719399999998
90985,NA,I-64 Southbound at S 1st St,NA,I-64 at S 1st St,NA,38.61914649999999,-90.18719399999998
90986,NA,S 1st St at I-64 Southbound,NA,I-64 at S 1st St,NA,38.61914649999999,-90.18719399999998
90987,NA,I-64 Eastbound at S 1st St,NA,I-64 at S 1st St,NA,38.61914649999999,-90.18719399999998
90988,NA,S 1st St at I-64 Eastbound,NA,I-64 at S 1st St,NA,38.61914649999999,-90.18719399999998
90989,NA,I-64 Westbound at S 1st St,NA,I-64 at S 1st St,NA,38.61914649999999,-90.18719399999998
90990,NA,S 1st St at I-64 Westbound,NA,I-64 at S 1st St,NA,38.61914649999999,-90.18719399999998
90991,NA,I-64 at S 2nd St,NA,I-64 at S 2nd St,NA,38.61946999999999,-90.18826999999999
90992,NA,S 2nd St at I-64,NA,I-64 at S 2nd St,NA,38.61946999999999,-90.18826999999999
90993,NA,I-64 Northbound at S 2nd St,NA,I-64 at S 2nd St,NA,38.61946999999999,-90.18826999999999
90994,NA,S 2nd St at I-64 Northbound,NA,I-64 at S 2nd St,NA,38.61946999999999,-90.18826999999999
90995,NA,I-64 Southbound at S 2nd St,NA,I-64 at S 2nd St,NA,38.61946999999999,-90.18826999999999
90996,NA,S 2nd St at I-64 Southbound,NA,I-64 at S 2nd St,NA,38.61946999999999,-90.18826999999999
90997,NA,I-64 Eastbound at S 2nd St,NA,I-64 at S 2nd St,NA,38.61946999999999,-90.18826999999999
90998,NA,S 2nd St at I-64 Eastbound,NA,I-64 at S 2nd St,NA,38.61946999999999,-90.18826999999999
90999,NA,I-64 Westbound at S 2nd St,NA,I-64 at S 2nd St,NA,38.61946999999999,-90.18826999999999
91000,NA,S 2nd St at I-64 Westbound,NA,I-64 at S 2nd St,NA,38.61946999999999,-90.18826999999999
91001,NA,I-64 at S 4th St,NA,I-64 at S 4th St,NA,38.62047449999999,-90.19073599999999
91002,NA,S 4th St at I-64,NA,I-64 at S 4th St,NA,38.62047449999999,-90.19073599999999
91003,NA,I-64 Northbound at S 4th St,NA,I-64 at S 4th St,NA,38.62047449999999,-90.19073599999999
91004,NA,S 4th St at I-64 Northbound,NA,I-64 at S 4th St,NA,38.62047449999999,-90.19073599999999
91005,NA,I-64 Southbound at S 4th St,NA,I-64 at S 4th St,NA,38.62047449999999,-90.19073599999999
91006,NA,S 4th St at I-64 Southbound,NA,I-64 at S 4th St,NA,38.62047449999999,-90.19073599999999
91007,NA,I-64 Eastbound at S 4th St,NA,I-64 at S 4th St,NA,38.62047449999999,-90.19073599999999
91008,NA,S 4th St at I-64 Eastbound,NA,I-64 at S 4th St,NA,38.62047449999999,-90.19073599999999
91009,NA,I-64 Westbound at S 4th St,NA,I-64 at S 4th St,NA,38.62047449999999,-90.19073599999999
91010,NA,S 4th St at I-64 Westbound,NA,I-64 at S 4th St,NA,38.62047449999999,-90.19073599999999
91011,NA,I-64 at S 8th St,NA,I-64 at S 8th St,NA,38.621845,-90.19486799999999
91012,NA,S 8th St at I-64,NA,I-64 at S 8th St,NA,38.621845,-90.19486799999999
91013,NA,I-64 Northbound at S 8th St,NA,I-64 at S 8th St,NA,38.621845,-90.19486799999999
91014,NA,S 8th St at I-64 Northbound,NA,I-64 at S 8th St,NA,38.621845,-90.19486799999999
91015,NA,I-64 Southbound at S 8th St,NA,I-64 at S 8th St,NA,38.621845,-90.19486799999999
91016,NA,S 8th St at I-64 Southbound,NA,I-64 at S 8th St,NA,38.621845,-90.19486799999999
91017,NA,I-64 Eastbound at S 8th St,NA,I-64 at S 8th St,NA,38.621845,-90.19486799999999
91018,NA,S 8th St at I-64 Eastbound,NA,I-64 at S 8th St,NA,38.621845,-90.19486799999999
91019,NA,I-64 Westbound at S 8th St,NA,I-64 at S 8th St,NA,38.621845,-90.19486799999999
91020,NA,S 8th St at I-64 Westbound,NA,I-64 at S 8th St,NA,38.621845,-90.19486799999999
91021,NA,I-64 at S Boyle Ave,NA,I-64 at S Boyle Ave,NA,38.63114899999999,-90.2532785
91022,NA,S Boyle Ave at I-64,NA,I-64 at S Boyle Ave,NA,38.63114899999999,-90.2532785
91023,NA,I-64 Northbound at S Boyle Ave,NA,I-64 at S Boyle Ave,NA,38.63114899999999,-90.2532785
91024,NA,S Boyle Ave at I-64 Northbound,NA,I-64 at S Boyle Ave,NA,38.63114899999999,-90.2532785
91025,NA,I-64 Southbound at S Boyle Ave,NA,I-64 at S Boyle Ave,NA,38.63114899999999,-90.2532785
91026,NA,S Boyle Ave at I-64 Southbound,NA,I-64 at S Boyle Ave,NA,38.63114899999999,-90.2532785
91027,NA,I-64 Eastbound at S Boyle Ave,NA,I-64 at S Boyle Ave,NA,38.63114899999999,-90.2532785
91028,NA,S Boyle Ave at I-64 Eastbound,NA,I-64 at S Boyle Ave,NA,38.63114899999999,-90.2532785
91029,NA,I-64 Westbound at S Boyle Ave,NA,I-64 at S Boyle Ave,NA,38.63114899999999,-90.2532785
91030,NA,S Boyle Ave at I-64 Westbound,NA,I-64 at S Boyle Ave,NA,38.63114899999999,-90.2532785
91031,NA,I-64 at S Broadway,NA,I-64 at S Broadway,NA,38.62091649999999,-90.19181449999999
91032,NA,S Broadway at I-64,NA,I-64 at S Broadway,NA,38.62091649999999,-90.19181449999999
91033,NA,I-64 Northbound at S Broadway,NA,I-64 at S Broadway,NA,38.62091649999999,-90.19181449999999
91034,NA,S Broadway at I-64 Northbound,NA,I-64 at S Broadway,NA,38.62091649999999,-90.19181449999999
91035,NA,I-64 Southbound at S Broadway,NA,I-64 at S Broadway,NA,38.62091649999999,-90.19181449999999
91036,NA,S Broadway at I-64 Southbound,NA,I-64 at S Broadway,NA,38.62091649999999,-90.19181449999999
91037,NA,I-64 Eastbound at S Broadway,NA,I-64 at S Broadway,NA,38.62091649999999,-90.19181449999999
91038,NA,S Broadway at I-64 Eastbound,NA,I-64 at S Broadway,NA,38.62091649999999,-90.19181449999999
91039,NA,I-64 Westbound at S Broadway,NA,I-64 at S Broadway,NA,38.62091649999999,-90.19181449999999
91040,NA,S Broadway at I-64 Westbound,NA,I-64 at S Broadway,NA,38.62091649999999,-90.19181449999999
91041,NA,I-64 at S Compton Ave,NA,I-64 at S Compton Ave,NA,38.63032999999999,-90.22751849999999
91042,NA,S Compton Ave at I-64,NA,I-64 at S Compton Ave,NA,38.63032999999999,-90.22751849999999
91043,NA,I-64 Northbound at S Compton Ave,NA,I-64 at S Compton Ave,NA,38.63032999999999,-90.22751849999999
91044,NA,S Compton Ave at I-64 Northbound,NA,I-64 at S Compton Ave,NA,38.63032999999999,-90.22751849999999
91045,NA,I-64 Southbound at S Compton Ave,NA,I-64 at S Compton Ave,NA,38.63032999999999,-90.22751849999999
91046,NA,S Compton Ave at I-64 Southbound,NA,I-64 at S Compton Ave,NA,38.63032999999999,-90.22751849999999
91047,NA,I-64 Eastbound at S Compton Ave,NA,I-64 at S Compton Ave,NA,38.63032999999999,-90.22751849999999
91048,NA,S Compton Ave at I-64 Eastbound,NA,I-64 at S Compton Ave,NA,38.63032999999999,-90.22751849999999
91049,NA,I-64 Westbound at S Compton Ave,NA,I-64 at S Compton Ave,NA,38.63032999999999,-90.22751849999999
91050,NA,S Compton Ave at I-64 Westbound,NA,I-64 at S Compton Ave,NA,38.63032999999999,-90.22751849999999
91051,NA,I-64 at S Ewing Ave,NA,I-64 at S Ewing Ave,NA,38.628935999999996,-90.22212849999998
91052,NA,S Ewing Ave at I-64,NA,I-64 at S Ewing Ave,NA,38.628935999999996,-90.22212849999998
91053,NA,I-64 Northbound at S Ewing Ave,NA,I-64 at S Ewing Ave,NA,38.628935999999996,-90.22212849999998
91054,NA,S Ewing Ave at I-64 Northbound,NA,I-64 at S Ewing Ave,NA,38.628935999999996,-90.22212849999998
91055,NA,I-64 Southbound at S Ewing Ave,NA,I-64 at S Ewing Ave,NA,38.628935999999996,-90.22212849999998
91056,NA,S Ewing Ave at I-64 Southbound,NA,I-64 at S Ewing Ave,NA,38.628935999999996,-90.22212849999998
91057,NA,I-64 Eastbound at S Ewing Ave,NA,I-64 at S Ewing Ave,NA,38.628935999999996,-90.22212849999998
91058,NA,S Ewing Ave at I-64 Eastbound,NA,I-64 at S Ewing Ave,NA,38.628935999999996,-90.22212849999998
91059,NA,I-64 Westbound at S Ewing Ave,NA,I-64 at S Ewing Ave,NA,38.628935999999996,-90.22212849999998
91060,NA,S Ewing Ave at I-64 Westbound,NA,I-64 at S Ewing Ave,NA,38.628935999999996,-90.22212849999998
91061,NA,I-64 at S Grand Blvd,NA,I-64 at S Grand Blvd,NA,38.631524999999996,-90.23477499999998
91062,NA,S Grand Blvd at I-64,NA,I-64 at S Grand Blvd,NA,38.631524999999996,-90.23477499999998
91063,NA,I-64 Northbound at S Grand Blvd,NA,I-64 at S Grand Blvd,NA,38.631524999999996,-90.23477499999998
91064,NA,S Grand Blvd at I-64 Northbound,NA,I-64 at S Grand Blvd,NA,38.631524999999996,-90.23477499999998
91065,NA,I-64 Southbound at S Grand Blvd,NA,I-64 at S Grand Blvd,NA,38.631524999999996,-90.23477499999998
91066,NA,S Grand Blvd at I-64 Southbound,NA,I-64 at S Grand Blvd,NA,38.631524999999996,-90.23477499999998
91067,NA,I-64 Eastbound at S Grand Blvd,NA,I-64 at S Grand Blvd,NA,38.631524999999996,-90.23477499999998
91068,NA,S Grand Blvd at I-64 Eastbound,NA,I-64 at S Grand Blvd,NA,38.631524999999996,-90.23477499999998
91069,NA,I-64 Westbound at S Grand Blvd,NA,I-64 at S Grand Blvd,NA,38.631524999999996,-90.23477499999998
91070,NA,S Grand Blvd at I-64 Westbound,NA,I-64 at S Grand Blvd,NA,38.631524999999996,-90.23477499999998
91071,NA,I-64 at S Jefferson Ave,NA,I-64 at S Jefferson Ave,NA,38.627467499999995,-90.21773149999999
91072,NA,S Jefferson Ave at I-64,NA,I-64 at S Jefferson Ave,NA,38.627467499999995,-90.21773149999999
91073,NA,I-64 Northbound at S Jefferson Ave,NA,I-64 at S Jefferson Ave,NA,38.627467499999995,-90.21773149999999
91074,NA,S Jefferson Ave at I-64 Northbound,NA,I-64 at S Jefferson Ave,NA,38.627467499999995,-90.21773149999999
91075,NA,I-64 Southbound at S Jefferson Ave,NA,I-64 at S Jefferson Ave,NA,38.627467499999995,-90.21773149999999
91076,NA,S Jefferson Ave at I-64 Southbound,NA,I-64 at S Jefferson Ave,NA,38.627467499999995,-90.21773149999999
91077,NA,I-64 Eastbound at S Jefferson Ave,NA,I-64 at S Jefferson Ave,NA,38.627467499999995,-90.21773149999999
91078,NA,S Jefferson Ave at I-64 Eastbound,NA,I-64 at S Jefferson Ave,NA,38.627467499999995,-90.21773149999999
91079,NA,I-64 Westbound at S Jefferson Ave,NA,I-64 at S Jefferson Ave,NA,38.627467499999995,-90.21773149999999
91080,NA,S Jefferson Ave at I-64 Westbound,NA,I-64 at S Jefferson Ave,NA,38.627467499999995,-90.21773149999999
91081,NA,I-64 at S Kingshighway Blvd,NA,I-64 at S Kingshighway Blvd,NA,38.63115599999999,-90.2656255
91082,NA,S Kingshighway Blvd at I-64,NA,I-64 at S Kingshighway Blvd,NA,38.63115599999999,-90.2656255
91083,NA,I-64 Northbound at S Kingshighway Blvd,NA,I-64 at S Kingshighway Blvd,NA,38.63115599999999,-90.2656255
91084,NA,S Kingshighway Blvd at I-64 Northbound,NA,I-64 at S Kingshighway Blvd,NA,38.63115599999999,-90.2656255
91085,NA,I-64 Southbound at S Kingshighway Blvd,NA,I-64 at S Kingshighway Blvd,NA,38.63115599999999,-90.2656255
91086,NA,S Kingshighway Blvd at I-64 Southbound,NA,I-64 at S Kingshighway Blvd,NA,38.63115599999999,-90.2656255
91087,NA,I-64 Eastbound at S Kingshighway Blvd,NA,I-64 at S Kingshighway Blvd,NA,38.63115599999999,-90.2656255
91088,NA,S Kingshighway Blvd at I-64 Eastbound,NA,I-64 at S Kingshighway Blvd,NA,38.63115599999999,-90.2656255
91089,NA,I-64 Westbound at S Kingshighway Blvd,NA,I-64 at S Kingshighway Blvd,NA,38.63115599999999,-90.2656255
91090,NA,S Kingshighway Blvd at I-64 Westbound,NA,I-64 at S Kingshighway Blvd,NA,38.63115599999999,-90.2656255
91091,NA,I-64 at S Newstead Ave,NA,I-64 at S Newstead Ave,NA,38.6312005,-90.25744999999999
91092,NA,S Newstead Ave at I-64,NA,I-64 at S Newstead Ave,NA,38.6312005,-90.25744999999999
91093,NA,I-64 Northbound at S Newstead Ave,NA,I-64 at S Newstead Ave,NA,38.6312005,-90.25744999999999
91094,NA,S Newstead Ave at I-64 Northbound,NA,I-64 at S Newstead Ave,NA,38.6312005,-90.25744999999999
91095,NA,I-64 Southbound at S Newstead Ave,NA,I-64 at S Newstead Ave,NA,38.6312005,-90.25744999999999
91096,NA,S Newstead Ave at I-64 Southbound,NA,I-64 at S Newstead Ave,NA,38.6312005,-90.25744999999999
91097,NA,I-64 Eastbound at S Newstead Ave,NA,I-64 at S Newstead Ave,NA,38.6312005,-90.25744999999999
91098,NA,S Newstead Ave at I-64 Eastbound,NA,I-64 at S Newstead Ave,NA,38.6312005,-90.25744999999999
91099,NA,I-64 Westbound at S Newstead Ave,NA,I-64 at S Newstead Ave,NA,38.6312005,-90.25744999999999
91100,NA,S Newstead Ave at I-64 Westbound,NA,I-64 at S Newstead Ave,NA,38.6312005,-90.25744999999999
91101,NA,I-64 at S Sarah St,NA,I-64 at S Sarah St,NA,38.631193999999994,-90.249084
91102,NA,S Sarah St at I-64,NA,I-64 at S Sarah St,NA,38.631193999999994,-90.249084
91103,NA,I-64 Northbound at S Sarah St,NA,I-64 at S Sarah St,NA,38.631193999999994,-90.249084
91104,NA,S Sarah St at I-64 Northbound,NA,I-64 at S Sarah St,NA,38.631193999999994,-90.249084
91105,NA,I-64 Southbound at S Sarah St,NA,I-64 at S Sarah St,NA,38.631193999999994,-90.249084
91106,NA,S Sarah St at I-64 Southbound,NA,I-64 at S Sarah St,NA,38.631193999999994,-90.249084
91107,NA,I-64 Eastbound at S Sarah St,NA,I-64 at S Sarah St,NA,38.631193999999994,-90.249084
91108,NA,S Sarah St at I-64 Eastbound,NA,I-64 at S Sarah St,NA,38.631193999999994,-90.249084
91109,NA,I-64 Westbound at S Sarah St,NA,I-64 at S Sarah St,NA,38.631193999999994,-90.249084
91110,NA,S Sarah St at I-64 Westbound,NA,I-64 at S Sarah St,NA,38.631193999999994,-90.249084
91111,NA,I-64 at S Spring Ave,NA,I-64 at S Spring Ave,NA,38.63222799999999,-90.23828799999998
91112,NA,S Spring Ave at I-64,NA,I-64 at S Spring Ave,NA,38.63222799999999,-90.23828799999998
91113,NA,I-64 Northbound at S Spring Ave,NA,I-64 at S Spring Ave,NA,38.63222799999999,-90.23828799999998
91114,NA,S Spring Ave at I-64 Northbound,NA,I-64 at S Spring Ave,NA,38.63222799999999,-90.23828799999998
91115,NA,I-64 Southbound at S Spring Ave,NA,I-64 at S Spring Ave,NA,38.63222799999999,-90.23828799999998
91116,NA,S Spring Ave at I-64 Southbound,NA,I-64 at S Spring Ave,NA,38.63222799999999,-90.23828799999998
91117,NA,I-64 Eastbound at S Spring Ave,NA,I-64 at S Spring Ave,NA,38.63222799999999,-90.23828799999998
91118,NA,S Spring Ave at I-64 Eastbound,NA,I-64 at S Spring Ave,NA,38.63222799999999,-90.23828799999998
91119,NA,I-64 Westbound at S Spring Ave,NA,I-64 at S Spring Ave,NA,38.63222799999999,-90.23828799999998
91120,NA,S Spring Ave at I-64 Westbound,NA,I-64 at S Spring Ave,NA,38.63222799999999,-90.23828799999998
91121,NA,I-64 at S Taylor Ave,NA,I-64 at S Taylor Ave,NA,38.632017999999995,-90.26045449999998
91122,NA,S Taylor Ave at I-64,NA,I-64 at S Taylor Ave,NA,38.632017999999995,-90.26045449999998
91123,NA,I-64 Northbound at S Taylor Ave,NA,I-64 at S Taylor Ave,NA,38.632017999999995,-90.26045449999998
91124,NA,S Taylor Ave at I-64 Northbound,NA,I-64 at S Taylor Ave,NA,38.632017999999995,-90.26045449999998
91125,NA,I-64 Southbound at S Taylor Ave,NA,I-64 at S Taylor Ave,NA,38.632017999999995,-90.26045449999998
91126,NA,S Taylor Ave at I-64 Southbound,NA,I-64 at S Taylor Ave,NA,38.632017999999995,-90.26045449999998
91127,NA,I-64 Eastbound at S Taylor Ave,NA,I-64 at S Taylor Ave,NA,38.632017999999995,-90.26045449999998
91128,NA,S Taylor Ave at I-64 Eastbound,NA,I-64 at S Taylor Ave,NA,38.632017999999995,-90.26045449999998
91129,NA,I-64 Westbound at S Taylor Ave,NA,I-64 at S Taylor Ave,NA,38.632017999999995,-90.26045449999998
91130,NA,S Taylor Ave at I-64 Westbound,NA,I-64 at S Taylor Ave,NA,38.632017999999995,-90.26045449999998
91131,NA,I-64 at S Tucker Blvd,NA,I-64 at S Tucker Blvd,NA,38.62302199999999,-90.20004299999998
91132,NA,S Tucker Blvd at I-64,NA,I-64 at S Tucker Blvd,NA,38.62302199999999,-90.20004299999998
91133,NA,I-64 Northbound at S Tucker Blvd,NA,I-64 at S Tucker Blvd,NA,38.62302199999999,-90.20004299999998
91134,NA,S Tucker Blvd at I-64 Northbound,NA,I-64 at S Tucker Blvd,NA,38.62302199999999,-90.20004299999998
91135,NA,I-64 Southbound at S Tucker Blvd,NA,I-64 at S Tucker Blvd,NA,38.62302199999999,-90.20004299999998
91136,NA,S Tucker Blvd at I-64 Southbound,NA,I-64 at S Tucker Blvd,NA,38.62302199999999,-90.20004299999998
91137,NA,I-64 Eastbound at S Tucker Blvd,NA,I-64 at S Tucker Blvd,NA,38.62302199999999,-90.20004299999998
91138,NA,S Tucker Blvd at I-64 Eastbound,NA,I-64 at S Tucker Blvd,NA,38.62302199999999,-90.20004299999998
91139,NA,I-64 Westbound at S Tucker Blvd,NA,I-64 at S Tucker Blvd,NA,38.62302199999999,-90.20004299999998
91140,NA,S Tucker Blvd at I-64 Westbound,NA,I-64 at S Tucker Blvd,NA,38.62302199999999,-90.20004299999998
91141,NA,I-64 at S Vandeventer Ave,NA,I-64 at S Vandeventer Ave,NA,38.6323295,-90.24313899999999
91142,NA,S Vandeventer Ave at I-64,NA,I-64 at S Vandeventer Ave,NA,38.6323295,-90.24313899999999
91143,NA,I-64 Northbound at S Vandeventer Ave,NA,I-64 at S Vandeventer Ave,NA,38.6323295,-90.24313899999999
91144,NA,S Vandeventer Ave at I-64 Northbound,NA,I-64 at S Vandeventer Ave,NA,38.6323295,-90.24313899999999
91145,NA,I-64 Southbound at S Vandeventer Ave,NA,I-64 at S Vandeventer Ave,NA,38.6323295,-90.24313899999999
91146,NA,S Vandeventer Ave at I-64 Southbound,NA,I-64 at S Vandeventer Ave,NA,38.6323295,-90.24313899999999
91147,NA,I-64 Eastbound at S Vandeventer Ave,NA,I-64 at S Vandeventer Ave,NA,38.6323295,-90.24313899999999
91148,NA,S Vandeventer Ave at I-64 Eastbound,NA,I-64 at S Vandeventer Ave,NA,38.6323295,-90.24313899999999
91149,NA,I-64 Westbound at S Vandeventer Ave,NA,I-64 at S Vandeventer Ave,NA,38.6323295,-90.24313899999999
91150,NA,S Vandeventer Ave at I-64 Westbound,NA,I-64 at S Vandeventer Ave,NA,38.6323295,-90.24313899999999
91151,NA,I-64 at S Wharf St,NA,I-64 at S Wharf St,NA,38.61889649999999,-90.18618649999999
91152,NA,S Wharf St at I-64,NA,I-64 at S Wharf St,NA,38.61889649999999,-90.18618649999999
91153,NA,I-64 Northbound at S Wharf St,NA,I-64 at S Wharf St,NA,38.61889649999999,-90.18618649999999
91154,NA,S Wharf St at I-64 Northbound,NA,I-64 at S Wharf St,NA,38.61889649999999,-90.18618649999999
91155,NA,I-64 Southbound at S Wharf St,NA,I-64 at S Wharf St,NA,38.61889649999999,-90.18618649999999
91156,NA,S Wharf St at I-64 Southbound,NA,I-64 at S Wharf St,NA,38.61889649999999,-90.18618649999999
91157,NA,I-64 Eastbound at S Wharf St,NA,I-64 at S Wharf St,NA,38.61889649999999,-90.18618649999999
91158,NA,S Wharf St at I-64 Eastbound,NA,I-64 at S Wharf St,NA,38.61889649999999,-90.18618649999999
91159,NA,I-64 Westbound at S Wharf St,NA,I-64 at S Wharf St,NA,38.61889649999999,-90.18618649999999
91160,NA,S Wharf St at I-64 Westbound,NA,I-64 at S Wharf St,NA,38.61889649999999,-90.18618649999999
91161,NA,I-64 at Tamm Entrance,NA,I-64 at Tamm Entrance,NA,38.63232549999999,-90.29362899999998
91162,NA,Tamm Entrance at I-64,NA,I-64 at Tamm Entrance,NA,38.63232549999999,-90.29362899999998
91163,NA,I-64 Northbound at Tamm Entrance,NA,I-64 at Tamm Entrance,NA,38.63232549999999,-90.29362899999998
91164,NA,Tamm Entrance at I-64 Northbound,NA,I-64 at Tamm Entrance,NA,38.63232549999999,-90.29362899999998
91165,NA,I-64 Southbound at Tamm Entrance,NA,I-64 at Tamm Entrance,NA,38.63232549999999,-90.29362899999998
91166,NA,Tamm Entrance at I-64 Southbound,NA,I-64 at Tamm Entrance,NA,38.63232549999999,-90.29362899999998
91167,NA,I-64 Eastbound at Tamm Entrance,NA,I-64 at Tamm Entrance,NA,38.63232549999999,-90.29362899999998
91168,NA,Tamm Entrance at I-64 Eastbound,NA,I-64 at Tamm Entrance,NA,38.63232549999999,-90.29362899999998
91169,NA,I-64 Westbound at Tamm Entrance,NA,I-64 at Tamm Entrance,NA,38.63232549999999,-90.29362899999998
91170,NA,Tamm Entrance at I-64 Westbound,NA,I-64 at Tamm Entrance,NA,38.63232549999999,-90.29362899999998
91171,NA,I-64 at Tower Grove Ave,NA,I-64 at Tower Grove Ave,NA,38.63094649999999,-90.25473149999999
91172,NA,Tower Grove Ave at I-64,NA,I-64 at Tower Grove Ave,NA,38.63094649999999,-90.25473149999999
91173,NA,I-64 Northbound at Tower Grove Ave,NA,I-64 at Tower Grove Ave,NA,38.63094649999999,-90.25473149999999
91174,NA,Tower Grove Ave at I-64 Northbound,NA,I-64 at Tower Grove Ave,NA,38.63094649999999,-90.25473149999999
91175,NA,I-64 Southbound at Tower Grove Ave,NA,I-64 at Tower Grove Ave,NA,38.63094649999999,-90.25473149999999
91176,NA,Tower Grove Ave at I-64 Southbound,NA,I-64 at Tower Grove Ave,NA,38.63094649999999,-90.25473149999999
91177,NA,I-64 Eastbound at Tower Grove Ave,NA,I-64 at Tower Grove Ave,NA,38.63094649999999,-90.25473149999999
91178,NA,Tower Grove Ave at I-64 Eastbound,NA,I-64 at Tower Grove Ave,NA,38.63094649999999,-90.25473149999999
91179,NA,I-64 Westbound at Tower Grove Ave,NA,I-64 at Tower Grove Ave,NA,38.63094649999999,-90.25473149999999
91180,NA,Tower Grove Ave at I-64 Westbound,NA,I-64 at Tower Grove Ave,NA,38.63094649999999,-90.25473149999999
91181,NA,I-64 at US Hwy 40,NA,I-64 at US Hwy 40,NA,38.627266,-90.21762949999999
91182,NA,US Hwy 40 at I-64,NA,I-64 at US Hwy 40,NA,38.627266,-90.21762949999999
91183,NA,I-64 Northbound at US Hwy 40,NA,I-64 at US Hwy 40,NA,38.627266,-90.21762949999999
91184,NA,US Hwy 40 at I-64 Northbound,NA,I-64 at US Hwy 40,NA,38.627266,-90.21762949999999
91185,NA,I-64 Southbound at US Hwy 40,NA,I-64 at US Hwy 40,NA,38.627266,-90.21762949999999
91186,NA,US Hwy 40 at I-64 Southbound,NA,I-64 at US Hwy 40,NA,38.627266,-90.21762949999999
91187,NA,I-64 Eastbound at US Hwy 40,NA,I-64 at US Hwy 40,NA,38.627266,-90.21762949999999
91188,NA,US Hwy 40 at I-64 Eastbound,NA,I-64 at US Hwy 40,NA,38.627266,-90.21762949999999
91189,NA,I-64 Westbound at US Hwy 40,NA,I-64 at US Hwy 40,NA,38.627266,-90.21762949999999
91190,NA,US Hwy 40 at I-64 Westbound,NA,I-64 at US Hwy 40,NA,38.627266,-90.21762949999999
91191,NA,I-70 at Adelaide Ave,NA,I-70 at Adelaide Ave,NA,38.679579999999994,-90.21113399999999
91192,NA,Adelaide Ave at I-70,NA,I-70 at Adelaide Ave,NA,38.679579999999994,-90.21113399999999
91193,NA,I-70 Northbound at Adelaide Ave,NA,I-70 at Adelaide Ave,NA,38.679579999999994,-90.21113399999999
91194,NA,Adelaide Ave at I-70 Northbound,NA,I-70 at Adelaide Ave,NA,38.679579999999994,-90.21113399999999
91195,NA,I-70 Southbound at Adelaide Ave,NA,I-70 at Adelaide Ave,NA,38.679579999999994,-90.21113399999999
91196,NA,Adelaide Ave at I-70 Southbound,NA,I-70 at Adelaide Ave,NA,38.679579999999994,-90.21113399999999
91197,NA,I-70 Eastbound at Adelaide Ave,NA,I-70 at Adelaide Ave,NA,38.679579999999994,-90.21113399999999
91198,NA,Adelaide Ave at I-70 Eastbound,NA,I-70 at Adelaide Ave,NA,38.679579999999994,-90.21113399999999
91199,NA,I-70 Westbound at Adelaide Ave,NA,I-70 at Adelaide Ave,NA,38.679579999999994,-90.21113399999999
91200,NA,Adelaide Ave at I-70 Westbound,NA,I-70 at Adelaide Ave,NA,38.679579999999994,-90.21113399999999
91201,NA,I-70 at Angelica St,NA,I-70 at Angelica St,NA,38.66659866666666,-90.19995833333331
91202,NA,Angelica St at I-70,NA,I-70 at Angelica St,NA,38.66659866666666,-90.19995833333331
91203,NA,I-70 Northbound at Angelica St,NA,I-70 at Angelica St,NA,38.66659866666666,-90.19995833333331
91204,NA,Angelica St at I-70 Northbound,NA,I-70 at Angelica St,NA,38.66659866666666,-90.19995833333331
91205,NA,I-70 Southbound at Angelica St,NA,I-70 at Angelica St,NA,38.66659866666666,-90.19995833333331
91206,NA,Angelica St at I-70 Southbound,NA,I-70 at Angelica St,NA,38.66659866666666,-90.19995833333331
91207,NA,I-70 Eastbound at Angelica St,NA,I-70 at Angelica St,NA,38.66659866666666,-90.19995833333331
91208,NA,Angelica St at I-70 Eastbound,NA,I-70 at Angelica St,NA,38.66659866666666,-90.19995833333331
91209,NA,I-70 Westbound at Angelica St,NA,I-70 at Angelica St,NA,38.66659866666666,-90.19995833333331
91210,NA,Angelica St at I-70 Westbound,NA,I-70 at Angelica St,NA,38.66659866666666,-90.19995833333331
91211,NA,I-70 at Branch St,NA,I-70 at Branch St,NA,38.65554866666666,-90.195229
91212,NA,Branch St at I-70,NA,I-70 at Branch St,NA,38.65554866666666,-90.195229
91213,NA,I-70 Northbound at Branch St,NA,I-70 at Branch St,NA,38.65554866666666,-90.195229
91214,NA,Branch St at I-70 Northbound,NA,I-70 at Branch St,NA,38.65554866666666,-90.195229
91215,NA,I-70 Southbound at Branch St,NA,I-70 at Branch St,NA,38.65554866666666,-90.195229
91216,NA,Branch St at I-70 Southbound,NA,I-70 at Branch St,NA,38.65554866666666,-90.195229
91217,NA,I-70 Eastbound at Branch St,NA,I-70 at Branch St,NA,38.65554866666666,-90.195229
91218,NA,Branch St at I-70 Eastbound,NA,I-70 at Branch St,NA,38.65554866666666,-90.195229
91219,NA,I-70 Westbound at Branch St,NA,I-70 at Branch St,NA,38.65554866666666,-90.195229
91220,NA,Branch St at I-70 Westbound,NA,I-70 at Branch St,NA,38.65554866666666,-90.195229
91221,NA,I-70 at E Grand Ave,NA,I-70 at E Grand Ave,NA,38.67297799999999,-90.20429166666666
91222,NA,E Grand Ave at I-70,NA,I-70 at E Grand Ave,NA,38.67297799999999,-90.20429166666666
91223,NA,I-70 Northbound at E Grand Ave,NA,I-70 at E Grand Ave,NA,38.67297799999999,-90.20429166666666
91224,NA,E Grand Ave at I-70 Northbound,NA,I-70 at E Grand Ave,NA,38.67297799999999,-90.20429166666666
91225,NA,I-70 Southbound at E Grand Ave,NA,I-70 at E Grand Ave,NA,38.67297799999999,-90.20429166666666
91226,NA,E Grand Ave at I-70 Southbound,NA,I-70 at E Grand Ave,NA,38.67297799999999,-90.20429166666666
91227,NA,I-70 Eastbound at E Grand Ave,NA,I-70 at E Grand Ave,NA,38.67297799999999,-90.20429166666666
91228,NA,E Grand Ave at I-70 Eastbound,NA,I-70 at E Grand Ave,NA,38.67297799999999,-90.20429166666666
91229,NA,I-70 Westbound at E Grand Ave,NA,I-70 at E Grand Ave,NA,38.67297799999999,-90.20429166666666
91230,NA,E Grand Ave at I-70 Westbound,NA,I-70 at E Grand Ave,NA,38.67297799999999,-90.20429166666666
91231,NA,I-70 at E Taylor Ave,NA,I-70 at E Taylor Ave,NA,38.68320266666666,-90.22575999999998
91232,NA,E Taylor Ave at I-70,NA,I-70 at E Taylor Ave,NA,38.68320266666666,-90.22575999999998
91233,NA,I-70 Northbound at E Taylor Ave,NA,I-70 at E Taylor Ave,NA,38.68320266666666,-90.22575999999998
91234,NA,E Taylor Ave at I-70 Northbound,NA,I-70 at E Taylor Ave,NA,38.68320266666666,-90.22575999999998
91235,NA,I-70 Southbound at E Taylor Ave,NA,I-70 at E Taylor Ave,NA,38.68320266666666,-90.22575999999998
91236,NA,E Taylor Ave at I-70 Southbound,NA,I-70 at E Taylor Ave,NA,38.68320266666666,-90.22575999999998
91237,NA,I-70 Eastbound at E Taylor Ave,NA,I-70 at E Taylor Ave,NA,38.68320266666666,-90.22575999999998
91238,NA,E Taylor Ave at I-70 Eastbound,NA,I-70 at E Taylor Ave,NA,38.68320266666666,-90.22575999999998
91239,NA,I-70 Westbound at E Taylor Ave,NA,I-70 at E Taylor Ave,NA,38.68320266666666,-90.22575999999998
91240,NA,E Taylor Ave at I-70 Westbound,NA,I-70 at E Taylor Ave,NA,38.68320266666666,-90.22575999999998
91241,NA,I-70 at Goodfellow Blvd,NA,I-70 at Goodfellow Blvd,NA,38.70052575,-90.26404224999999
91242,NA,Goodfellow Blvd at I-70,NA,I-70 at Goodfellow Blvd,NA,38.70052575,-90.26404224999999
91243,NA,I-70 Northbound at Goodfellow Blvd,NA,I-70 at Goodfellow Blvd,NA,38.70052575,-90.26404224999999
91244,NA,Goodfellow Blvd at I-70 Northbound,NA,I-70 at Goodfellow Blvd,NA,38.70052575,-90.26404224999999
91245,NA,I-70 Southbound at Goodfellow Blvd,NA,I-70 at Goodfellow Blvd,NA,38.70052575,-90.26404224999999
91246,NA,Goodfellow Blvd at I-70 Southbound,NA,I-70 at Goodfellow Blvd,NA,38.70052575,-90.26404224999999
91247,NA,I-70 Eastbound at Goodfellow Blvd,NA,I-70 at Goodfellow Blvd,NA,38.70052575,-90.26404224999999
91248,NA,Goodfellow Blvd at I-70 Eastbound,NA,I-70 at Goodfellow Blvd,NA,38.70052575,-90.26404224999999
91249,NA,I-70 Westbound at Goodfellow Blvd,NA,I-70 at Goodfellow Blvd,NA,38.70052575,-90.26404224999999
91250,NA,Goodfellow Blvd at I-70 Westbound,NA,I-70 at Goodfellow Blvd,NA,38.70052575,-90.26404224999999
91251,NA,I-70 at Madison St,NA,I-70 at Madison St,NA,38.647023666666655,-90.19095399999999
91252,NA,Madison St at I-70,NA,I-70 at Madison St,NA,38.647023666666655,-90.19095399999999
91253,NA,I-70 Northbound at Madison St,NA,I-70 at Madison St,NA,38.647023666666655,-90.19095399999999
91254,NA,Madison St at I-70 Northbound,NA,I-70 at Madison St,NA,38.647023666666655,-90.19095399999999
91255,NA,I-70 Southbound at Madison St,NA,I-70 at Madison St,NA,38.647023666666655,-90.19095399999999
91256,NA,Madison St at I-70 Southbound,NA,I-70 at Madison St,NA,38.647023666666655,-90.19095399999999
91257,NA,I-70 Eastbound at Madison St,NA,I-70 at Madison St,NA,38.647023666666655,-90.19095399999999
91258,NA,Madison St at I-70 Eastbound,NA,I-70 at Madison St,NA,38.647023666666655,-90.19095399999999
91259,NA,I-70 Westbound at Madison St,NA,I-70 at Madison St,NA,38.647023666666655,-90.19095399999999
91260,NA,Madison St at I-70 Westbound,NA,I-70 at Madison St,NA,38.647023666666655,-90.19095399999999
91261,NA,I-70 at Mark Twain Expy,NA,I-70 at Mark Twain Expy,NA,38.67742824999999,-90.23614724999999
91262,NA,Mark Twain Expy at I-70,NA,I-70 at Mark Twain Expy,NA,38.67742824999999,-90.23614724999999
91263,NA,I-70 Northbound at Mark Twain Expy,NA,I-70 at Mark Twain Expy,NA,38.67742824999999,-90.23614724999999
91264,NA,Mark Twain Expy at I-70 Northbound,NA,I-70 at Mark Twain Expy,NA,38.67742824999999,-90.23614724999999
91265,NA,I-70 Southbound at Mark Twain Expy,NA,I-70 at Mark Twain Expy,NA,38.67742824999999,-90.23614724999999
91266,NA,Mark Twain Expy at I-70 Southbound,NA,I-70 at Mark Twain Expy,NA,38.67742824999999,-90.23614724999999
91267,NA,I-70 Eastbound at Mark Twain Expy,NA,I-70 at Mark Twain Expy,NA,38.67742824999999,-90.23614724999999
91268,NA,Mark Twain Expy at I-70 Eastbound,NA,I-70 at Mark Twain Expy,NA,38.67742824999999,-90.23614724999999
91269,NA,I-70 Westbound at Mark Twain Expy,NA,I-70 at Mark Twain Expy,NA,38.67742824999999,-90.23614724999999
91270,NA,Mark Twain Expy at I-70 Westbound,NA,I-70 at Mark Twain Expy,NA,38.67742824999999,-90.23614724999999
91271,NA,I-70 at Mc Kinley Brg,NA,I-70 at Mc Kinley Brg,NA,38.66226699999999,-90.19742366666665
91272,NA,Mc Kinley Brg at I-70,NA,I-70 at Mc Kinley Brg,NA,38.66226699999999,-90.19742366666665
91273,NA,I-70 Northbound at Mc Kinley Brg,NA,I-70 at Mc Kinley Brg,NA,38.66226699999999,-90.19742366666665
91274,NA,Mc Kinley Brg at I-70 Northbound,NA,I-70 at Mc Kinley Brg,NA,38.66226699999999,-90.19742366666665
91275,NA,I-70 Southbound at Mc Kinley Brg,NA,I-70 at Mc Kinley Brg,NA,38.66226699999999,-90.19742366666665
91276,NA,Mc Kinley Brg at I-70 Southbound,NA,I-70 at Mc Kinley Brg,NA,38.66226699999999,-90.19742366666665
91277,NA,I-70 Eastbound at Mc Kinley Brg,NA,I-70 at Mc Kinley Brg,NA,38.66226699999999,-90.19742366666665
91278,NA,Mc Kinley Brg at I-70 Eastbound,NA,I-70 at Mc Kinley Brg,NA,38.66226699999999,-90.19742366666665
91279,NA,I-70 Westbound at Mc Kinley Brg,NA,I-70 at Mc Kinley Brg,NA,38.66226699999999,-90.19742366666665
91280,NA,Mc Kinley Brg at I-70 Westbound,NA,I-70 at Mc Kinley Brg,NA,38.66226699999999,-90.19742366666665
91281,NA,I-70 at Meacham Ln,NA,I-70 at Meacham Ln,NA,38.683913666666655,-90.21901066666666
91282,NA,Meacham Ln at I-70,NA,I-70 at Meacham Ln,NA,38.683913666666655,-90.21901066666666
91283,NA,I-70 Northbound at Meacham Ln,NA,I-70 at Meacham Ln,NA,38.683913666666655,-90.21901066666666
91284,NA,Meacham Ln at I-70 Northbound,NA,I-70 at Meacham Ln,NA,38.683913666666655,-90.21901066666666
91285,NA,I-70 Southbound at Meacham Ln,NA,I-70 at Meacham Ln,NA,38.683913666666655,-90.21901066666666
91286,NA,Meacham Ln at I-70 Southbound,NA,I-70 at Meacham Ln,NA,38.683913666666655,-90.21901066666666
91287,NA,I-70 Eastbound at Meacham Ln,NA,I-70 at Meacham Ln,NA,38.683913666666655,-90.21901066666666
91288,NA,Meacham Ln at I-70 Eastbound,NA,I-70 at Meacham Ln,NA,38.683913666666655,-90.21901066666666
91289,NA,I-70 Westbound at Meacham Ln,NA,I-70 at Meacham Ln,NA,38.683913666666655,-90.21901066666666
91290,NA,Meacham Ln at I-70 Westbound,NA,I-70 at Meacham Ln,NA,38.683913666666655,-90.21901066666666
91291,NA,I-70 at N 1st St,NA,I-70 at N 1st St,NA,38.644285999999994,-90.18398899999998
91292,NA,N 1st St at I-70,NA,I-70 at N 1st St,NA,38.644285999999994,-90.18398899999998
91293,NA,I-70 Northbound at N 1st St,NA,I-70 at N 1st St,NA,38.644285999999994,-90.18398899999998
91294,NA,N 1st St at I-70 Northbound,NA,I-70 at N 1st St,NA,38.644285999999994,-90.18398899999998
91295,NA,I-70 Southbound at N 1st St,NA,I-70 at N 1st St,NA,38.644285999999994,-90.18398899999998
91296,NA,N 1st St at I-70 Southbound,NA,I-70 at N 1st St,NA,38.644285999999994,-90.18398899999998
91297,NA,I-70 Eastbound at N 1st St,NA,I-70 at N 1st St,NA,38.644285999999994,-90.18398899999998
91298,NA,N 1st St at I-70 Eastbound,NA,I-70 at N 1st St,NA,38.644285999999994,-90.18398899999998
91299,NA,I-70 Westbound at N 1st St,NA,I-70 at N 1st St,NA,38.644285999999994,-90.18398899999998
91300,NA,N 1st St at I-70 Westbound,NA,I-70 at N 1st St,NA,38.644285999999994,-90.18398899999998
91301,NA,I-70 at N 3rd St,NA,I-70 at N 3rd St,NA,38.643405,-90.18643149999998
91302,NA,N 3rd St at I-70,NA,I-70 at N 3rd St,NA,38.643405,-90.18643149999998
91303,NA,I-70 Northbound at N 3rd St,NA,I-70 at N 3rd St,NA,38.643405,-90.18643149999998
91304,NA,N 3rd St at I-70 Northbound,NA,I-70 at N 3rd St,NA,38.643405,-90.18643149999998
91305,NA,I-70 Southbound at N 3rd St,NA,I-70 at N 3rd St,NA,38.643405,-90.18643149999998
91306,NA,N 3rd St at I-70 Southbound,NA,I-70 at N 3rd St,NA,38.643405,-90.18643149999998
91307,NA,I-70 Eastbound at N 3rd St,NA,I-70 at N 3rd St,NA,38.643405,-90.18643149999998
91308,NA,N 3rd St at I-70 Eastbound,NA,I-70 at N 3rd St,NA,38.643405,-90.18643149999998
91309,NA,I-70 Westbound at N 3rd St,NA,I-70 at N 3rd St,NA,38.643405,-90.18643149999998
91310,NA,N 3rd St at I-70 Westbound,NA,I-70 at N 3rd St,NA,38.643405,-90.18643149999998
91311,NA,I-70 at N Broadway,NA,I-70 at N Broadway,NA,38.643405,-90.18643149999998
91312,NA,N Broadway at I-70,NA,I-70 at N Broadway,NA,38.643405,-90.18643149999998
91313,NA,I-70 Northbound at N Broadway,NA,I-70 at N Broadway,NA,38.643405,-90.18643149999998
91314,NA,N Broadway at I-70 Northbound,NA,I-70 at N Broadway,NA,38.643405,-90.18643149999998
91315,NA,I-70 Southbound at N Broadway,NA,I-70 at N Broadway,NA,38.643405,-90.18643149999998
91316,NA,N Broadway at I-70 Southbound,NA,I-70 at N Broadway,NA,38.643405,-90.18643149999998
91317,NA,I-70 Eastbound at N Broadway,NA,I-70 at N Broadway,NA,38.643405,-90.18643149999998
91318,NA,N Broadway at I-70 Eastbound,NA,I-70 at N Broadway,NA,38.643405,-90.18643149999998
91319,NA,I-70 Westbound at N Broadway,NA,I-70 at N Broadway,NA,38.643405,-90.18643149999998
91320,NA,N Broadway at I-70 Westbound,NA,I-70 at N Broadway,NA,38.643405,-90.18643149999998
91321,NA,I-70 at N Kingshighway Blvd,NA,I-70 at N Kingshighway Blvd,NA,38.68624,-90.24570233333333
91322,NA,N Kingshighway Blvd at I-70,NA,I-70 at N Kingshighway Blvd,NA,38.68624,-90.24570233333333
91323,NA,I-70 Northbound at N Kingshighway Blvd,NA,I-70 at N Kingshighway Blvd,NA,38.68624,-90.24570233333333
91324,NA,N Kingshighway Blvd at I-70 Northbound,NA,I-70 at N Kingshighway Blvd,NA,38.68624,-90.24570233333333
91325,NA,I-70 Southbound at N Kingshighway Blvd,NA,I-70 at N Kingshighway Blvd,NA,38.68624,-90.24570233333333
91326,NA,N Kingshighway Blvd at I-70 Southbound,NA,I-70 at N Kingshighway Blvd,NA,38.68624,-90.24570233333333
91327,NA,I-70 Eastbound at N Kingshighway Blvd,NA,I-70 at N Kingshighway Blvd,NA,38.68624,-90.24570233333333
91328,NA,N Kingshighway Blvd at I-70 Eastbound,NA,I-70 at N Kingshighway Blvd,NA,38.68624,-90.24570233333333
91329,NA,I-70 Westbound at N Kingshighway Blvd,NA,I-70 at N Kingshighway Blvd,NA,38.68624,-90.24570233333333
91330,NA,N Kingshighway Blvd at I-70 Westbound,NA,I-70 at N Kingshighway Blvd,NA,38.68624,-90.24570233333333
91331,NA,I-70 at Poplar St Brg,NA,I-70 at Poplar St Brg,NA,38.619989,-90.18967974999998
91332,NA,Poplar St Brg at I-70,NA,I-70 at Poplar St Brg,NA,38.619989,-90.18967974999998
91333,NA,I-70 Northbound at Poplar St Brg,NA,I-70 at Poplar St Brg,NA,38.619989,-90.18967974999998
91334,NA,Poplar St Brg at I-70 Northbound,NA,I-70 at Poplar St Brg,NA,38.619989,-90.18967974999998
91335,NA,I-70 Southbound at Poplar St Brg,NA,I-70 at Poplar St Brg,NA,38.619989,-90.18967974999998
91336,NA,Poplar St Brg at I-70 Southbound,NA,I-70 at Poplar St Brg,NA,38.619989,-90.18967974999998
91337,NA,I-70 Eastbound at Poplar St Brg,NA,I-70 at Poplar St Brg,NA,38.619989,-90.18967974999998
91338,NA,Poplar St Brg at I-70 Eastbound,NA,I-70 at Poplar St Brg,NA,38.619989,-90.18967974999998
91339,NA,I-70 Westbound at Poplar St Brg,NA,I-70 at Poplar St Brg,NA,38.619989,-90.18967974999998
91340,NA,Poplar St Brg at I-70 Westbound,NA,I-70 at Poplar St Brg,NA,38.619989,-90.18967974999998
91341,NA,I-70 at Prairie Ave,NA,I-70 at Prairie Ave,NA,38.67577633333333,-90.20626566666665
91342,NA,Prairie Ave at I-70,NA,I-70 at Prairie Ave,NA,38.67577633333333,-90.20626566666665
91343,NA,I-70 Northbound at Prairie Ave,NA,I-70 at Prairie Ave,NA,38.67577633333333,-90.20626566666665
91344,NA,Prairie Ave at I-70 Northbound,NA,I-70 at Prairie Ave,NA,38.67577633333333,-90.20626566666665
91345,NA,I-70 Southbound at Prairie Ave,NA,I-70 at Prairie Ave,NA,38.67577633333333,-90.20626566666665
91346,NA,Prairie Ave at I-70 Southbound,NA,I-70 at Prairie Ave,NA,38.67577633333333,-90.20626566666665
91347,NA,I-70 Eastbound at Prairie Ave,NA,I-70 at Prairie Ave,NA,38.67577633333333,-90.20626566666665
91348,NA,Prairie Ave at I-70 Eastbound,NA,I-70 at Prairie Ave,NA,38.67577633333333,-90.20626566666665
91349,NA,I-70 Westbound at Prairie Ave,NA,I-70 at Prairie Ave,NA,38.67577633333333,-90.20626566666665
91350,NA,Prairie Ave at I-70 Westbound,NA,I-70 at Prairie Ave,NA,38.67577633333333,-90.20626566666665
91351,NA,I-70 at Riverview Blvd,NA,I-70 at Riverview Blvd,NA,38.697953999999996,-90.26085849999998
91352,NA,Riverview Blvd at I-70,NA,I-70 at Riverview Blvd,NA,38.697953999999996,-90.26085849999998
91353,NA,I-70 Northbound at Riverview Blvd,NA,I-70 at Riverview Blvd,NA,38.697953999999996,-90.26085849999998
91354,NA,Riverview Blvd at I-70 Northbound,NA,I-70 at Riverview Blvd,NA,38.697953999999996,-90.26085849999998
91355,NA,I-70 Southbound at Riverview Blvd,NA,I-70 at Riverview Blvd,NA,38.697953999999996,-90.26085849999998
91356,NA,Riverview Blvd at I-70 Southbound,NA,I-70 at Riverview Blvd,NA,38.697953999999996,-90.26085849999998
91357,NA,I-70 Eastbound at Riverview Blvd,NA,I-70 at Riverview Blvd,NA,38.697953999999996,-90.26085849999998
91358,NA,Riverview Blvd at I-70 Eastbound,NA,I-70 at Riverview Blvd,NA,38.697953999999996,-90.26085849999998
91359,NA,I-70 Westbound at Riverview Blvd,NA,I-70 at Riverview Blvd,NA,38.697953999999996,-90.26085849999998
91360,NA,Riverview Blvd at I-70 Westbound,NA,I-70 at Riverview Blvd,NA,38.697953999999996,-90.26085849999998
91361,NA,I-70 at S Wharf St,NA,I-70 at S Wharf St,NA,38.61895299999999,-90.186165
91362,NA,S Wharf St at I-70,NA,I-70 at S Wharf St,NA,38.61895299999999,-90.186165
91363,NA,I-70 Northbound at S Wharf St,NA,I-70 at S Wharf St,NA,38.61895299999999,-90.186165
91364,NA,S Wharf St at I-70 Northbound,NA,I-70 at S Wharf St,NA,38.61895299999999,-90.186165
91365,NA,I-70 Southbound at S Wharf St,NA,I-70 at S Wharf St,NA,38.61895299999999,-90.186165
91366,NA,S Wharf St at I-70 Southbound,NA,I-70 at S Wharf St,NA,38.61895299999999,-90.186165
91367,NA,I-70 Eastbound at S Wharf St,NA,I-70 at S Wharf St,NA,38.61895299999999,-90.186165
91368,NA,S Wharf St at I-70 Eastbound,NA,I-70 at S Wharf St,NA,38.61895299999999,-90.186165
91369,NA,I-70 Westbound at S Wharf St,NA,I-70 at S Wharf St,NA,38.61895299999999,-90.186165
91370,NA,S Wharf St at I-70 Westbound,NA,I-70 at S Wharf St,NA,38.61895299999999,-90.186165
91371,NA,I-70 at Saint Louis Ave,NA,I-70 at Saint Louis Ave,NA,38.65247299999999,-90.19371433333332
91372,NA,Saint Louis Ave at I-70,NA,I-70 at Saint Louis Ave,NA,38.65247299999999,-90.19371433333332
91373,NA,I-70 Northbound at Saint Louis Ave,NA,I-70 at Saint Louis Ave,NA,38.65247299999999,-90.19371433333332
91374,NA,Saint Louis Ave at I-70 Northbound,NA,I-70 at Saint Louis Ave,NA,38.65247299999999,-90.19371433333332
91375,NA,I-70 Southbound at Saint Louis Ave,NA,I-70 at Saint Louis Ave,NA,38.65247299999999,-90.19371433333332
91376,NA,Saint Louis Ave at I-70 Southbound,NA,I-70 at Saint Louis Ave,NA,38.65247299999999,-90.19371433333332
91377,NA,I-70 Eastbound at Saint Louis Ave,NA,I-70 at Saint Louis Ave,NA,38.65247299999999,-90.19371433333332
91378,NA,Saint Louis Ave at I-70 Eastbound,NA,I-70 at Saint Louis Ave,NA,38.65247299999999,-90.19371433333332
91379,NA,I-70 Westbound at Saint Louis Ave,NA,I-70 at Saint Louis Ave,NA,38.65247299999999,-90.19371433333332
91380,NA,Saint Louis Ave at I-70 Westbound,NA,I-70 at Saint Louis Ave,NA,38.65247299999999,-90.19371433333332
91381,NA,I-70 at Salisbury St,NA,I-70 at Salisbury St,NA,38.661924666666664,-90.19725399999999
91382,NA,Salisbury St at I-70,NA,I-70 at Salisbury St,NA,38.661924666666664,-90.19725399999999
91383,NA,I-70 Northbound at Salisbury St,NA,I-70 at Salisbury St,NA,38.661924666666664,-90.19725399999999
91384,NA,Salisbury St at I-70 Northbound,NA,I-70 at Salisbury St,NA,38.661924666666664,-90.19725399999999
91385,NA,I-70 Southbound at Salisbury St,NA,I-70 at Salisbury St,NA,38.661924666666664,-90.19725399999999
91386,NA,Salisbury St at I-70 Southbound,NA,I-70 at Salisbury St,NA,38.661924666666664,-90.19725399999999
91387,NA,I-70 Eastbound at Salisbury St,NA,I-70 at Salisbury St,NA,38.661924666666664,-90.19725399999999
91388,NA,Salisbury St at I-70 Eastbound,NA,I-70 at Salisbury St,NA,38.661924666666664,-90.19725399999999
91389,NA,I-70 Westbound at Salisbury St,NA,I-70 at Salisbury St,NA,38.661924666666664,-90.19725399999999
91390,NA,Salisbury St at I-70 Westbound,NA,I-70 at Salisbury St,NA,38.661924666666664,-90.19725399999999
91391,NA,I-70 at Shreve Ave,NA,I-70 at Shreve Ave,NA,38.68301866666666,-90.23897966666665
91392,NA,Shreve Ave at I-70,NA,I-70 at Shreve Ave,NA,38.68301866666666,-90.23897966666665
91393,NA,I-70 Northbound at Shreve Ave,NA,I-70 at Shreve Ave,NA,38.68301866666666,-90.23897966666665
91394,NA,Shreve Ave at I-70 Northbound,NA,I-70 at Shreve Ave,NA,38.68301866666666,-90.23897966666665
91395,NA,I-70 Southbound at Shreve Ave,NA,I-70 at Shreve Ave,NA,38.68301866666666,-90.23897966666665
91396,NA,Shreve Ave at I-70 Southbound,NA,I-70 at Shreve Ave,NA,38.68301866666666,-90.23897966666665
91397,NA,I-70 Eastbound at Shreve Ave,NA,I-70 at Shreve Ave,NA,38.68301866666666,-90.23897966666665
91398,NA,Shreve Ave at I-70 Eastbound,NA,I-70 at Shreve Ave,NA,38.68301866666666,-90.23897966666665
91399,NA,I-70 Westbound at Shreve Ave,NA,I-70 at Shreve Ave,NA,38.68301866666666,-90.23897966666665
91400,NA,Shreve Ave at I-70 Westbound,NA,I-70 at Shreve Ave,NA,38.68301866666666,-90.23897966666665
91401,NA,I-70 at State Hwy 367,NA,I-70 at State Hwy 367,NA,38.697953999999996,-90.26085849999998
91402,NA,State Hwy 367 at I-70,NA,I-70 at State Hwy 367,NA,38.697953999999996,-90.26085849999998
91403,NA,I-70 Northbound at State Hwy 367,NA,I-70 at State Hwy 367,NA,38.697953999999996,-90.26085849999998
91404,NA,State Hwy 367 at I-70 Northbound,NA,I-70 at State Hwy 367,NA,38.697953999999996,-90.26085849999998
91405,NA,I-70 Southbound at State Hwy 367,NA,I-70 at State Hwy 367,NA,38.697953999999996,-90.26085849999998
91406,NA,State Hwy 367 at I-70 Southbound,NA,I-70 at State Hwy 367,NA,38.697953999999996,-90.26085849999998
91407,NA,I-70 Eastbound at State Hwy 367,NA,I-70 at State Hwy 367,NA,38.697953999999996,-90.26085849999998
91408,NA,State Hwy 367 at I-70 Eastbound,NA,I-70 at State Hwy 367,NA,38.697953999999996,-90.26085849999998
91409,NA,I-70 Westbound at State Hwy 367,NA,I-70 at State Hwy 367,NA,38.697953999999996,-90.26085849999998
91410,NA,State Hwy 367 at I-70 Westbound,NA,I-70 at State Hwy 367,NA,38.697953999999996,-90.26085849999998
91411,NA,I-70 at Union Blvd,NA,I-70 at Union Blvd,NA,38.68848525,-90.25099749999998
91412,NA,Union Blvd at I-70,NA,I-70 at Union Blvd,NA,38.68848525,-90.25099749999998
91413,NA,I-70 Northbound at Union Blvd,NA,I-70 at Union Blvd,NA,38.68848525,-90.25099749999998
91414,NA,Union Blvd at I-70 Northbound,NA,I-70 at Union Blvd,NA,38.68848525,-90.25099749999998
91415,NA,I-70 Southbound at Union Blvd,NA,I-70 at Union Blvd,NA,38.68848525,-90.25099749999998
91416,NA,Union Blvd at I-70 Southbound,NA,I-70 at Union Blvd,NA,38.68848525,-90.25099749999998
91417,NA,I-70 Eastbound at Union Blvd,NA,I-70 at Union Blvd,NA,38.68848525,-90.25099749999998
91418,NA,Union Blvd at I-70 Eastbound,NA,I-70 at Union Blvd,NA,38.68848525,-90.25099749999998
91419,NA,I-70 Westbound at Union Blvd,NA,I-70 at Union Blvd,NA,38.68848525,-90.25099749999998
91420,NA,Union Blvd at I-70 Westbound,NA,I-70 at Union Blvd,NA,38.68848525,-90.25099749999998
91421,NA,I-70 at US Hwy 40,NA,I-70 at US Hwy 40,NA,38.619989,-90.18967974999998
91422,NA,US Hwy 40 at I-70,NA,I-70 at US Hwy 40,NA,38.619989,-90.18967974999998
91423,NA,I-70 Northbound at US Hwy 40,NA,I-70 at US Hwy 40,NA,38.619989,-90.18967974999998
91424,NA,US Hwy 40 at I-70 Northbound,NA,I-70 at US Hwy 40,NA,38.619989,-90.18967974999998
91425,NA,I-70 Southbound at US Hwy 40,NA,I-70 at US Hwy 40,NA,38.619989,-90.18967974999998
91426,NA,US Hwy 40 at I-70 Southbound,NA,I-70 at US Hwy 40,NA,38.619989,-90.18967974999998
91427,NA,I-70 Eastbound at US Hwy 40,NA,I-70 at US Hwy 40,NA,38.619989,-90.18967974999998
91428,NA,US Hwy 40 at I-70 Eastbound,NA,I-70 at US Hwy 40,NA,38.619989,-90.18967974999998
91429,NA,I-70 Westbound at US Hwy 40,NA,I-70 at US Hwy 40,NA,38.619989,-90.18967974999998
91430,NA,US Hwy 40 at I-70 Westbound,NA,I-70 at US Hwy 40,NA,38.619989,-90.18967974999998
91431,NA,I-70 at W Florissant Ave,NA,I-70 at W Florissant Ave,NA,38.68307466666666,-90.22782916666665
91432,NA,W Florissant Ave at I-70,NA,I-70 at W Florissant Ave,NA,38.68307466666666,-90.22782916666665
91433,NA,I-70 Northbound at W Florissant Ave,NA,I-70 at W Florissant Ave,NA,38.68307466666666,-90.22782916666665
91434,NA,W Florissant Ave at I-70 Northbound,NA,I-70 at W Florissant Ave,NA,38.68307466666666,-90.22782916666665
91435,NA,I-70 Southbound at W Florissant Ave,NA,I-70 at W Florissant Ave,NA,38.68307466666666,-90.22782916666665
91436,NA,W Florissant Ave at I-70 Southbound,NA,I-70 at W Florissant Ave,NA,38.68307466666666,-90.22782916666665
91437,NA,I-70 Eastbound at W Florissant Ave,NA,I-70 at W Florissant Ave,NA,38.68307466666666,-90.22782916666665
91438,NA,W Florissant Ave at I-70 Eastbound,NA,I-70 at W Florissant Ave,NA,38.68307466666666,-90.22782916666665
91439,NA,I-70 Westbound at W Florissant Ave,NA,I-70 at W Florissant Ave,NA,38.68307466666666,-90.22782916666665
91440,NA,W Florissant Ave at I-70 Westbound,NA,I-70 at W Florissant Ave,NA,38.68307466666666,-90.22782916666665
